feature,name,address,website,longitude,latitude,location
Basketball Courts,Christie Park,NE 43rd St. and 9th Ave. NE,http://www.seattle.gov/parks/park_detail.asp?ID=595,-122.319072,47.659308,"(47.659308, -122.319072)"
Basketball Courts,Flo Ware Park,2800 S Jackson St.,http://www.seattle.gov/parks/park_detail.asp?ID=363,-122.295867,47.599557,"(47.599557, -122.295867)"
Basketball Courts,Pendleton Miller Playfield,400 19th Ave. E,http://www.seattle.gov/parks/park_detail.asp?ID=373,-122.306615,47.622067,"(47.622067, -122.306615)"
Basketball Courts,Roanoke Park,10th Ave. E and E Roanoke Park,http://www.seattle.gov/parks/park_detail.asp?ID=379,-122.320223,47.643837,"(47.643837, -122.320223)"
Basketball Courts,Pinehurst Playground,12029 14th Ave. NE,http://www.seattle.gov/parks/park_detail.asp?ID=382,-122.314626,47.716437,"(47.716437, -122.314626)"
Basketball Courts,Beacon Hill Playground,1902 13th Ave. S,http://www.seattle.gov/parks/park_detail.asp?ID=400,-122.315325,47.586228,"(47.586228, -122.315325)"
Basketball Courts,Brighton Playfield,6000 39th Ave. S,http://www.seattle.gov/parks/park_detail.asp?ID=402,-122.282098,47.548389,"(47.548389, -122.282098)"
Basketball Courts,Colman Playground,1740 23rd Ave. S,http://www.seattle.gov/parks/park_detail.asp?ID=406,-122.301959,47.587625,"(47.587625, -122.301959)"
Basketball Courts,Georgetown Playfield,750 S Homer St.,http://www.seattle.gov/parks/park_detail.asp?ID=410,-122.3214,47.551606,"(47.551606, -122.3214)"
Basketball Courts,Rainier Playfield,3700 S Alaska St.,http://www.seattle.gov/parks/park_detail.asp?ID=423,-122.286199,47.561819,"(47.561819, -122.286199)"
Basketball Courts,"John C. Little, Sr. Park",6961 37th Ave. S,http://www.seattle.gov/parks/park_detail.asp?ID=429,-122.286686,47.539048,"(47.539048, -122.286686)"
Basketball Courts,Van Asselt Playground,7200 Beacon Ave. S,http://www.seattle.gov/parks/park_detail.asp?ID=431,-122.294066,47.539447,"(47.539447, -122.294066)"
Basketball Courts,Freed Hutchinson Playground,S Norfolk St. and 59th Ave. S,http://www.seattle.gov/parks/park_detail.asp?ID=439,-122.260061,47.514311,"(47.514311, -122.260061)"
Basketball Courts,View Ridge Playfield,4408 NE 70th St.,http://www.seattle.gov/parks/park_detail.asp?ID=444,-122.281073,47.680361,"(47.680361, -122.281073)"
Basketball Courts,Delridge Playfield,4458 Delridge Way SW,http://www.seattle.gov/parks/park_detail.asp?ID=450,-122.364369,47.562841,"(47.562841, -122.364369)"
Basketball Courts,Hiawatha Playfield,2700 California Ave. SW,http://www.seattle.gov/parks/park_detail.asp?ID=456,-122.38523,47.578526,"(47.578526, -122.38523)"
Basketball Courts,E.C. Hughes Playground,2805 SW Holden St.,http://www.seattle.gov/parks/park_detail.asp?ID=458,-122.370211,47.532807,"(47.532807, -122.370211)"
Basketball Courts,Bryant Playground,4103 NE 65th St.,http://www.seattle.gov/parks/park_detail.asp?ID=482,-122.283764,47.675545,"(47.675545, -122.283764)"
Basketball Courts,Cowen Park,5849 15th Ave. NE,http://www.seattle.gov/parks/park_detail.asp?ID=483,-122.313072,47.672596,"(47.672596, -122.313072)"
Basketball Courts,Burke-Gilman Playground Park,5201 Sand Point Way NE,http://www.seattle.gov/parks/park_detail.asp?ID=496,-122.282622,47.666633,"(47.666633, -122.282622)"
Basketball Courts,Dahl (Waldo J.) Playfield,7700 25th Ave. NE,http://www.seattle.gov/parks/park_detail.asp?ID=499,-122.299309,47.685267,"(47.685267, -122.299309)"
Basketball Courts,Meridian Playground,4649 Sunnyside Ave. N,http://www.seattle.gov/parks/park_detail.asp?ID=1104,-122.332557,47.664157,"(47.664157, -122.332557)"
Basketball Courts,Unnamed Sister City Park,I-90 Lid,http://www.seattle.gov/parks/park_detail.asp?ID=3121,-122.30084,47.588907,"(47.588907, -122.30084)"
Basketball Courts,Jefferson Park,4165 16th Ave. S,http://www.seattle.gov/parks/park_detail.asp?ID=114,-122.312031,47.570105,"(47.570105, -122.312031)"
Basketball Courts,B.F. Day Playground,4020 Fremont Ave. N,http://www.seattle.gov/parks/park_detail.asp?ID=241,-122.349222,47.656305,"(47.656305, -122.349222)"
Basketball Courts,Gilman Playground,923 NW 54th St.,http://www.seattle.gov/parks/park_detail.asp?ID=242,-122.369684,47.667293,"(47.667293, -122.369684)"
Basketball Courts,Golden Garden Park,8498 Seaview Pl. NW,http://www.seattle.gov/parks/park_detail.asp?ID=243,-122.404273,47.692676,"(47.692676, -122.404273)"
Basketball Courts,Ross Playground,4320 4th Ave. NW,http://www.seattle.gov/parks/park_detail.asp?ID=248,-122.361324,47.660031,"(47.660031, -122.361324)"
Basketball Courts,Sandel Playground,9053 1st Ave. NW,http://www.seattle.gov/parks/park_detail.asp?ID=250,-122.358699,47.695135,"(47.695135, -122.358699)"
Basketball Courts,Loyal Heights Playfield,2101 NW 77th St.,http://www.seattle.gov/parks/park_detail.asp?ID=289,-122.383241,47.684105,"(47.684105, -122.383241)"
Basketball Courts,Bay View Playground,2614 24th Ave. W,http://www.seattle.gov/parks/park_detail.asp?ID=303,-122.386787,47.643801,"(47.643801, -122.386787)"
Basketball Courts,Green Lake Park,7201 E Green Lake Dr. N,http://www.seattle.gov/parks/park_detail.asp?ID=307,-122.337787,47.682453,"(47.682453, -122.337787)"
Basketball Courts,Pratt Park,1800 S Main St.,http://www.seattle.gov/parks/park_detail.asp?ID=390,-122.307257,47.601407,"(47.601407, -122.307257)"
Basketball Courts,Othello Playground,4351 S Othello St.,http://www.seattle.gov/parks/park_detail.asp?ID=403,-122.278678,47.536135,"(47.536135, -122.278678)"
Basketball Courts,Maple Wood Playfield,4801 Corson Ave. S,http://www.seattle.gov/parks/park_detail.asp?ID=418,-122.319112,47.558614,"(47.558614, -122.319112)"
Basketball Courts,Benefit Playground,9320 38th Ave. S,http://www.seattle.gov/parks/park_detail.asp?ID=436,-122.284527,47.518998,"(47.518998, -122.284527)"
Basketball Courts,Alki Playground,8347 14th Ave. NW,http://www.seattle.gov/parks/park_detail.asp?ID=446,-122.407313,47.578497,"(47.578497, -122.407313)"
Basketball Courts,Riverview Playfield,7226 12th Ave. SW,http://www.seattle.gov/parks/park_detail.asp?ID=463,-122.348688,47.54101,"(47.54101, -122.348688)"
Basketball Courts,Ravenna-Eckstein Park,6535 Ravenna Ave. NE,http://www.seattle.gov/parks/park_detail.asp?ID=488,-122.304964,47.676873,"(47.676873, -122.304964)"
Basketball Courts,Prentis I. Frazier Park,401 24th Ave. E,http://www.seattle.gov/parks/park_detail.asp?ID=357,-122.301614,47.622894,"(47.622894, -122.301614)"
Basketball Courts,Nathan Hale Playfield,10750 30th Ave. NE,http://www.seattle.gov/parks/park_detail.asp?ID=4023,-122.292026,47.707714,"(47.707714, -122.292026)"
Basketball Courts,Denny Park,100 Dexter Ave. N,http://www.seattle.gov/parks/park_detail.asp?ID=309,-122.341049,47.61913,"(47.61913, -122.341049)"
Basketball Courts,Discovery Park,3801 W Government Way,http://www.seattle.gov/parks/park_detail.asp?ID=310,-122.41313,47.669412,"(47.669412, -122.41313)"
Basketball Courts,East Queen Anne Playground,1912 Warren Ave. N,http://www.seattle.gov/parks/park_detail.asp?ID=329,-122.353788,47.636139,"(47.636139, -122.353788)"
Basketball Courts,Kerry Park And Viewpoint,211 W Highland Dr.,http://www.seattle.gov/parks/park_detail.asp?ID=342,-122.359947,47.629173,"(47.629173, -122.359947)"
Basketball Courts,Powell Barnett Park,352 Martin Luther King Jr. Way,http://www.seattle.gov/parks/park_detail.asp?ID=345,-122.295998,47.605197,"(47.605197, -122.295998)"
Basketball Courts,Cascade Playground,333 Pontius Ave. N,http://www.seattle.gov/parks/park_detail.asp?ID=350,-122.332627,47.621807,"(47.621807, -122.332627)"
Beaches,Warren G Magnuson,6550 Sand Point Way NE,http://www.seattle.gov/parks/beach_detail.asp?ID=398,-122.246372,47.680572,"(47.680572, -122.246372)"
Beaches,Green Lake Park (East),7201 E Green Lake Dr. N,http://www.seattle.gov/parks/beach_detail.asp?ID=307,-122.329524,47.680357,"(47.680357, -122.329524)"
Beaches,Mt Baker Park,2521 Lake Park Dr. S,http://www.seattle.gov/parks/beach_detail.asp?ID=419,-122.287466,47.583471,"(47.583471, -122.287466)"
Beaches,Madison Park,E. Madison St. and E. Howe St.,http://www.seattle.gov/parks/beach_detail.asp?ID=369,-122.276475,47.63605,"(47.63605, -122.276475)"
Beaches,Madrona Park,853 Lake Washington Blvd.,http://www.seattle.gov/parks/beach_detail.asp?ID=370,-122.282475,47.609136,"(47.609136, -122.282475)"
Beaches,Green Lake Park (West),7201 E Green Lake Dr. N,http://www.seattle.gov/parks/beach_detail.asp?ID=9999,-122.339395,47.68202,"(47.68202, -122.339395)"
Beaches,Seward Park,5902 Lake Washington Blvd. S,http://www.seattle.gov/parks/beach_detail.asp?ID=428,-122.257434,47.551619,"(47.551619, -122.257434)"
Beaches,Pritchard Beach,8400 55th Ave. S,http://www.seattle.gov/parks/beach_detail.asp?ID=420,-122.263104,47.529735,"(47.529735, -122.263104)"
Beaches,Matthews Beach,9300 51st Ave. NE,http://www.seattle.gov/parks/beach_detail.asp?ID=347,-122.27274,47.696947,"(47.696947, -122.27274)"
Boat Launches,Fairview Park  Boat Launch,2900 Fairview Ave. E,http://www.seattle.gov/parks/park_detail.asp?ID=2975,-122.325368,47.647413,"(47.647413, -122.325368)"
Boat Launches,Cormorant Cove Park Boat Launch,3701 Beach Dr. SW,http://www.seattle.gov/parks/park_detail.asp?ID=295,-122.41126,47.570967,"(47.570967, -122.41126)"
Boat Launches,Lowman Park Boat Launch,7017 Beach Dr. SW,http://www.seattle.gov/parks/park_detail.asp?ID=461,-122.397522,47.540127,"(47.540127, -122.397522)"
Boat Launches,Duwamish Waterway Park Boat Launch,7900 10th Ave. S,http://www.seattle.gov/parks/park_detail.asp?ID=705,-122.319716,47.531384,"(47.531384, -122.319716)"
Boat Launches,Golden Gardens Park Boat Launch,8498 Seaview Pl. NW,http://www.seattle.gov/parks/park_detail.asp?ID=9999,-122.403121,47.689725,"(47.689725, -122.403121)"
Boat Launches,Fairview Walkway Boat Launch,2900 Fairview Ave. E,http://www.seattle.gov/parks/park_detail.asp?ID=2975,-122.327462,47.631626,"(47.631626, -122.327462)"
Boat Launches,Day Street Boat Launch,1400 Lakeside Ave. S,http://www.seattle.gov/parks/park_detail.asp?ID=4082,-122.285738,47.590064,"(47.590064, -122.285738)"
Boat Launches,Stan Sayers/Mount Baker Rowing And Sailing Center Boat Launch,3800 Lake Washington Blvd. S.,http://www.seattle.gov/parks/park_detail.asp?ID=425,-122.278219,47.570356,"(47.570356, -122.278219)"
Boat Launches,Sand Point Magnuson Park-North Shore Boat Launch,6550 Sand Point Way NE,http://www.seattle.gov/parks/park_detail.asp?ID=398,-122.265028,47.689261,"(47.689261, -122.265028)"
Boat Launches,Lincoln Park Boat Launch,8011 Fauntleroy Way SW,http://www.seattle.gov/parks/park_detail.asp?ID=460,-122.394806,47.526098,"(47.526098, -122.394806)"
Boat Launches,Green Lake Small Craft Center,5900 W Green Lake Way N,http://www.seattle.gov/parks/park_detail.asp?ID=9998,-122.342949,47.671761,"(47.671761, -122.342949)"
Boat Launches,Alki Beach Park - West Boat Launch,1702 Alki Ave. SW,http://www.seattle.gov/parks/park_detail.asp?ID=445,-122.414817,47.578243,"(47.578243, -122.414817)"
Boat Launches,Carkeek Park Landing,950 NW Carkeek Park Rd.,http://www.seattle.gov/parks/park_detail.asp?ID=240,-122.379763,47.712194,"(47.712194, -122.379763)"
Boat Launches,Leschi Park Boat Ramp,100 Lakeside Ave. S,http://www.seattle.gov/parks/park_detail.asp?ID=367,-122.284211,47.601518,"(47.601518, -122.284211)"
Boat Launches,14th Ave. Nw Boat Ramp,NW 45th St. and 14 Ave. NW,http://www.seattle.gov/parks/park_detail.asp?ID=4010,-122.373536,47.660775,"(47.660775, -122.373536)"
Boat Launches,Richey View Point Launch,63rd Ave. SW and Beach Dr. SW,http://www.seattle.gov/parks/park_detail.asp?ID=80,-122.413877,47.57242,"(47.57242, -122.413877)"
Boat Launches,Green Lake Park Cove Boat Lauch,7201 E Green Lake Dr. N,http://www.seattle.gov/parks/park_detail.asp?ID=307,-122.330394,47.678938,"(47.678938, -122.330394)"
Boat Launches,Mccurdy Park Boat Launch,E Hamlin St. and E Park Dr. E,http://www.seattle.gov/parks/park_detail.asp?ID=372,-122.299178,47.645437,"(47.645437, -122.299178)"
Boat Launches,32nd Ave. West Boat Launch,The southern street end of 32nd Ave. W,http://www.seattle.gov/parks/park_detail.asp?ID=317,-122.398993,47.632366,"(47.632366, -122.398993)"
Boat Launches,Sunnyside Ave. N Boat Ramp,2301 NE Northlake Way,http://www.seattle.gov/parks/park_detail.asp?ID=3903,-122.330723,47.650292,"(47.650292, -122.330723)"
Boat Launches,Ferdinand Street Boat Launch,100 Lakeside Ave. S,http://www.seattle.gov/parks/park_detail.asp?ID=367,-122.261655,47.557318,"(47.557318, -122.261655)"
Boat Launches,Terry Pettus Park Boat Launch,E Newton St. and Fairview Ave. E,http://www.seattle.gov/parks/park_detail.asp?ID=3889,-122.329456,47.636752,"(47.636752, -122.329456)"
Boat Launches,Seacrest Park Boat Launch,1531 California Way SW,http://www.seattle.gov/parks/park_detail.asp?ID=455,-122.381226,47.589941,"(47.589941, -122.381226)"
Boat Launches,Atlantic City Boat Ramp,8702 Seward Park Ave. S,http://www.seattle.gov/parks/park_detail.asp?ID=4081,-122.263078,47.522834,"(47.522834, -122.263078)"
Boat Launches,South Lake Union Park Boat Launch,1000 Valley St.,http://www.seattle.gov/parks/park_detail.asp?ID=344,-122.338848,47.627015,"(47.627015, -122.338848)"
Boat Launches,Green Lake Park East Boat Launch,foot of NE 64th St.,http://www.seattle.gov/parks/park_detail.asp?ID=9996,-122.334113,47.675506,"(47.675506, -122.334113)"
Boat Launches,Beer Sheva Park Boat Launch,8650 55th Ave. S,http://www.seattle.gov/parks/park_detail.asp?ID=440,-122.262859,47.523512,"(47.523512, -122.262859)"
Boat Launches,Matthews Beach Boat Launch,9300 51st Ave. NE,http://www.seattle.gov/parks/park_detail.asp?ID=347,-122.271785,47.694564,"(47.694564, -122.271785)"
Boat Launches,Martha Washington Park Boat Launch,6612 57th Ave. S,http://www.seattle.gov/parks/park_detail.asp?ID=432,-122.259287,47.542212,"(47.542212, -122.259287)"
Boat Launches,South Passage Park Boat Launch,3320 Fuhrman Ave. E,http://www.seattle.gov/parks/park_detail.asp?ID=377,-122.322486,47.652087,"(47.652087, -122.322486)"
Boat Launches,Alki Beach Park - East Boat Launch,1702 Alki Ave. SW,http://www.seattle.gov/parks/park_detail.asp?ID=445,-122.402173,47.582912,"(47.582912, -122.402173)"
Boat Launches,Magnuson Park Boat Ramp,6550 Sand Point Way NE,http://www.seattle.gov/parks/park_detail.asp?ID=398,-122.250113,47.676856,"(47.676856, -122.250113)"
Boat Launches,Green Lake Park West Boat Launch,NW of Duck Island,http://www.seattle.gov/parks/park_detail.asp?ID=9995,-122.342511,47.680833,"(47.680833, -122.342511)"
Boat Launches,Washington Park And Arboretum Boat Launch,2300 Arboretum Dr. E,http://www.seattle.gov/parks/park_detail.asp?ID=393,-122.292647,47.641707,"(47.641707, -122.292647)"
Boat Launches,Seward Park Boat Launch,5902 Lake Washington Blvd. S,http://www.seattle.gov/parks/park_detail.asp?ID=428,-122.250639,47.54923,"(47.54923, -122.250639)"
Boat Launches,Eddie Vine Boat Ramp,8001 Seaview Ave. NW,http://www.seattle.gov/parks/park_detail.asp?ID=243,-122.403454,47.686852,"(47.686852, -122.403454)"
Boat Launches,Magnuson Park Boat Launch,6550 Sand Point Way NE,http://www.seattle.gov/parks/park_detail.asp?ID=398,-122.250151,47.675322,"(47.675322, -122.250151)"
Boat Launches,Stan Sayers Memorial Park Boat Ramp,3800 Lake Washington Blvd. S.,http://www.seattle.gov/parks/park_detail.asp?ID=425,-122.277162,47.571222,"(47.571222, -122.277162)"
Boat Launches,Don Armeni Boat Ramp,1222 Harbor Ave. SW,http://www.seattle.gov/parks/park_detail.asp?ID=3917,-122.382295,47.59274,"(47.59274, -122.382295)"
Ceremonies,Mount Baker Park,2521 Lake Park Dr. S,http://www.seattle.gov/parks/park_detail.asp?ID=419,-122.288481,47.580957,"(47.580957, -122.288481)"
Ceremonies,Parsons Gardens,650 W Highland Dr.,http://www.seattle.gov/parks/park_detail.asp?ID=324,-122.366082,47.629868,"(47.629868, -122.366082)"
Ceremonies,Camp Long,5200 35th Ave. SW,http://www.seattle.gov/parks/park_detail.asp?ID=4154,-122.37316,47.556242,"(47.556242, -122.37316)"
Ceremonies,Denny Blaine Park,200 Lake Washington Blvd. E,http://www.seattle.gov/parks/park_detail.asp?ID=3982,-122.280548,47.62011,"(47.62011, -122.280548)"
Ceremonies,Emma Schmitz Memorial Overlook,4503 Beach Dr. SW,http://www.seattle.gov/parks/park_detail.asp?ID=3920,-122.407119,47.562898,"(47.562898, -122.407119)"
Ceremonies,Jefferson Park,4165 16th Ave. S,http://www.seattle.gov/parks/park_detail.asp?ID=114,-122.310923,47.56896,"(47.56896, -122.310923)"
Ceremonies,Kubota Gardens,9817 55th Ave. S,http://www.seattle.gov/parks/park_detail.asp?ID=415,-122.266768,47.513064,"(47.513064, -122.266768)"
Ceremonies,Madison Park,E. Madison St. and E. Howe St.,http://www.seattle.gov/parks/park_detail.asp?ID=369,-122.276602,47.635779,"(47.635779, -122.276602)"
Ceremonies,Meridian Playground,4649 Sunnyside Ave. N,http://www.seattle.gov/parks/park_detail.asp?ID=1104,-122.332557,47.664157,"(47.664157, -122.332557)"
Ceremonies,Riverview Playfield,35th Ave. SW and SW Alaska St.,http://www.seattle.gov/parks/park_detail.asp?ID=463,-122.348855,47.539328,"(47.539328, -122.348855)"
Ceremonies,Sunset Hill Park,7531 34th Ave. NW,http://www.seattle.gov/parks/park_detail.asp?ID=252,-122.40094,47.684033,"(47.684033, -122.40094)"
Ceremonies,Woodland Park,Aurora Ave. N and N 59th St.,http://www.seattle.gov/parks/park_detail.asp?ID=292,-122.344218,47.668906,"(47.668906, -122.344218)"
Ceremonies,Pritchard Island Beach,8400 55th Ave. S,http://www.seattle.gov/parks/park_detail.asp?ID=420,-122.26283,47.528948,"(47.528948, -122.26283)"
Ceremonies,Seward Park,5902 Lake Washington Blvd. S,http://www.seattle.gov/parks/park_detail.asp?ID=428,-122.25245,47.5543,"(47.5543, -122.25245)"
Ceremonies,Lake Union Park,1000 Valley St.,http://www.seattle.gov/parks/park_detail.asp?ID=344,-122.337477,47.627143,"(47.627143, -122.337477)"
Ceremonies,West Seattle Golf Course,4600 35th Ave. SW,http://www.seattle.gov/parks/park_detail.asp?ID=469,-122.369657,47.55986,"(47.55986, -122.369657)"
Ceremonies,Belvedere Park,3600 Admiral Way SW,http://www.seattle.gov/parks/park_detail.asp?ID=447,-122.376896,47.580673,"(47.580673, -122.376896)"
Ceremonies,Bhy Kracke Park,1215 5th Ave. N,http://www.seattle.gov/parks/park_detail.asp?ID=304,-122.348403,47.630426,"(47.630426, -122.348403)"
Ceremonies,Carkeek Park,950 NW Carkeek Park Rd.,http://www.seattle.gov/parks/park_detail.asp?ID=240,-122.372409,47.710822,"(47.710822, -122.372409)"
Ceremonies,Colman Park,1800 Lake Washington Blvd. S,http://www.seattle.gov/parks/park_detail.asp?ID=405,-122.288612,47.58547,"(47.58547, -122.288612)"
Ceremonies,Discovery Park,3801 W Government Way,http://www.seattle.gov/parks/park_detail.asp?ID=310,-122.415282,47.66083,"(47.66083, -122.415282)"
Ceremonies,Don Armeni Boat Ramp,1222 Harbor Ave. SW,http://www.seattle.gov/parks/park_detail.asp?ID=3917,-122.38244,47.59291,"(47.59291, -122.38244)"
Ceremonies,Gas Works Park,2101 N Northlake Way,http://www.seattle.gov/parks/park_detail.asp?ID=293,-122.334906,47.645639,"(47.645639, -122.334906)"
Ceremonies,Golden Garden Park,8498 Seaview Pl. NW,http://www.seattle.gov/parks/park_detail.asp?ID=243,-122.40327,47.692105,"(47.692105, -122.40327)"
Ceremonies,Hamilton Viewpoint Park,1531 California Way SW,http://www.seattle.gov/parks/park_detail.asp?ID=454,-122.389068,47.590747,"(47.590747, -122.389068)"
Ceremonies,Kerry Park And Viewpoint,211 W Highland Dr.,http://www.seattle.gov/parks/park_detail.asp?ID=342,-122.359874,47.629023,"(47.629023, -122.359874)"
Ceremonies,Kinnear Park,899 W Olympic Pl.,http://www.seattle.gov/parks/park_detail.asp?ID=314,-122.367207,47.627317,"(47.627317, -122.367207)"
Ceremonies,Licton Springs Park,9536 Ashworth Ave. N,http://www.seattle.gov/parks/park_detail.asp?ID=286,-122.338735,47.698542,"(47.698542, -122.338735)"
Ceremonies,Boren Park,15th Ave. E and E Olin Pl.,http://www.seattle.gov/parks/park_detail.asp?ID=362,-122.311628,47.635274,"(47.635274, -122.311628)"
Ceremonies,Madrona Park,853 Lake Washington Blvd.,http://www.seattle.gov/parks/park_detail.asp?ID=370,-122.282679,47.609299,"(47.609299, -122.282679)"
Ceremonies,Magnolia Park,1461 Magnolia Blvd. W,http://www.seattle.gov/parks/park_detail.asp?ID=317,-122.397349,47.633426,"(47.633426, -122.397349)"
Childrens Play Areas,Alki Playground - Whales Tail,5817 SW Lander St.,http://www.seattle.gov/parks/park_detail.asp?ID=446,-122.407161,47.579322,"(47.579322, -122.407161)"
Childrens Play Areas,Green Lake Park,7201 E Green Lake Dr. N,http://www.seattle.gov/parks/park_detail.asp?ID=307,-122.327642,47.680649,"(47.680649, -122.327642)"
Childrens Play Areas,Bobby Morris Playfield,1635 11th Ave.,http://www.seattle.gov/parks/park_detail.asp?ID=3102,-122.319302,47.61654,"(47.61654, -122.319302)"
Childrens Play Areas,Madrona Park -Beach,853 Lake Washington Blvd.,http://www.seattle.gov/parks/park_detail.asp?ID=370,-122.282878,47.608642,"(47.608642, -122.282878)"
Childrens Play Areas,E. Queene Anne Playground,1912 Warren Ave. N,http://www.seattle.gov/parks/park_detail.asp?ID=329,-122.354092,47.635891,"(47.635891, -122.354092)"
Childrens Play Areas,Northacres Park,12718 1st Ave. NE,http://www.seattle.gov/parks/park_detail.asp?ID=361,-122.328065,47.721376,"(47.721376, -122.328065)"
Childrens Play Areas,Jose Rizal Park,1008 12th Ave. S,http://www.seattle.gov/parks/park_detail.asp?ID=433,-122.317604,47.591938,"(47.591938, -122.317604)"
Childrens Play Areas,Pinehurst Playground,12029 14th Ave. NE,http://www.seattle.gov/parks/park_detail.asp?ID=382,-122.314231,47.71627,"(47.71627, -122.314231)"
Childrens Play Areas,Van Asselt Playground,7200 Beacon Ave. S,http://www.seattle.gov/parks/park_detail.asp?ID=431,-122.295844,47.539268,"(47.539268, -122.295844)"
Childrens Play Areas,Maplewood Playfield,4801 Corson Ave. S,http://www.seattle.gov/parks/park_detail.asp?ID=418,-122.317796,47.560736,"(47.560736, -122.317796)"
Childrens Play Areas,Hutchinson Playground,S Norfolk St. and 59th Ave. S,http://www.seattle.gov/parks/park_detail.asp?ID=439,-122.259535,47.514844,"(47.514844, -122.259535)"
Childrens Play Areas,Roxhill Park - School,2850 SW Roxbury St.,http://www.seattle.gov/parks/park_detail.asp?ID=464,-122.370335,47.518639,"(47.518639, -122.370335)"
Childrens Play Areas,Prentis Frazier Park,401 24th Ave. E,http://www.seattle.gov/parks/park_detail.asp?ID=357,-122.301471,47.62283,"(47.62283, -122.301471)"
Childrens Play Areas,Bayview-Kinnear Park,2614 24th Ave. W,http://www.seattle.gov/parks/park_detail.asp?ID=303,-122.360237,47.6289,"(47.6289, -122.360237)"
Childrens Play Areas,Laurelhurst Playfield,4544 NE 41st St.,http://www.seattle.gov/parks/park_detail.asp?ID=340,-122.277838,47.659629,"(47.659629, -122.277838)"
Childrens Play Areas,Minor Playground,17th Ave. E and E Union St.,http://www.seattle.gov/parks/park_detail.asp?ID=3913,-122.310569,47.613126,"(47.613126, -122.310569)"
Childrens Play Areas,Rainier Community Center,3700 S Alaska St.,http://www.seattle.gov/parks/park_detail.asp?ID=423,-122.283408,47.561233,"(47.561233, -122.283408)"
Childrens Play Areas,Ross Playground,4320 4th Ave. NW,http://www.seattle.gov/parks/park_detail.asp?ID=248,-122.361217,47.660199,"(47.660199, -122.361217)"
Childrens Play Areas,Lincoln Park - Beach,8011 Fauntleroy Way SW,http://www.seattle.gov/parks/park_detail.asp?ID=460,-122.394773,47.526345,"(47.526345, -122.394773)"
Childrens Play Areas,Lincoln Park - South,8011 Fauntleroy Way SW,http://www.seattle.gov/parks/park_detail.asp?ID=460,-122.39478,47.527159,"(47.527159, -122.39478)"
Childrens Play Areas,Leschi Park,100 Lakeside Ave. S,http://www.seattle.gov/parks/park_detail.asp?ID=367,-122.286993,47.600843,"(47.600843, -122.286993)"
Childrens Play Areas,Cascade Playground,333 Pontius Ave. N,http://www.seattle.gov/parks/park_detail.asp?ID=350,-122.332611,47.621666,"(47.621666, -122.332611)"
Childrens Play Areas,Brighton Playfield,6000 39th Ave. S,http://www.seattle.gov/parks/park_detail.asp?ID=402,-122.282917,47.548573,"(47.548573, -122.282917)"
Childrens Play Areas,Powell Barnett Park,352 Martin Luther King Jr. Way,http://www.seattle.gov/parks/park_detail.asp?ID=345,-122.29592,47.604589,"(47.604589, -122.29592)"
Childrens Play Areas,Gas Works Park,2101 N Northlake Way,http://www.seattle.gov/parks/park_detail.asp?ID=293,-122.333523,47.645676,"(47.645676, -122.333523)"
Childrens Play Areas,Lake City Playground,2750 NE 125th St.,http://www.seattle.gov/parks/park_detail.asp?ID=4002,-122.299723,47.718097,"(47.718097, -122.299723)"
Childrens Play Areas,Judkins Park And Playfield,2150 S Norman St.,http://www.seattle.gov/parks/park_detail.asp?ID=397,-122.303915,47.59263,"(47.59263, -122.303915)"
Childrens Play Areas,Miller Playfield,400 19th Ave. E,http://www.seattle.gov/parks/park_detail.asp?ID=373,-122.306979,47.621093,"(47.621093, -122.306979)"
Childrens Play Areas,Viewridge Playfield,4408 NE 70th St.,http://www.seattle.gov/parks/park_detail.asp?ID=444,-122.279969,47.679747,"(47.679747, -122.279969)"
Childrens Play Areas,Discovery Park,3801 W Government Way,http://www.seattle.gov/parks/park_detail.asp?ID=310,-122.40498,47.656073,"(47.656073, -122.40498)"
Childrens Play Areas,Wallingford Playfield,4219 Wallingford Ave. N,http://www.seattle.gov/parks/park_detail.asp?ID=449,-122.337,47.658949,"(47.658949, -122.337)"
Childrens Play Areas,Benefit Playground,9320 38th Ave. S,http://www.seattle.gov/parks/park_detail.asp?ID=436,-122.284172,47.518527,"(47.518527, -122.284172)"
Childrens Play Areas,Riverview Playfield,7226 12th Ave. SW,http://www.seattle.gov/parks/park_detail.asp?ID=463,-122.349962,47.539281,"(47.539281, -122.349962)"
Childrens Play Areas,Alki Playground,5817 SW Lander St.,http://www.seattle.gov/parks/park_detail.asp?ID=446,-122.407731,47.577899,"(47.577899, -122.407731)"
Childrens Play Areas,Georgetown Playfield,750 S Homer St.,http://www.seattle.gov/parks/park_detail.asp?ID=410,-122.321488,47.552336,"(47.552336, -122.321488)"
Childrens Play Areas,Montlake Playfield,1618 E Calhoun St.,http://www.seattle.gov/parks/park_detail.asp?ID=376,-122.309449,47.641699,"(47.641699, -122.309449)"
Childrens Play Areas,Rainier Playfield,3700 S Alaska St.,http://www.seattle.gov/parks/park_detail.asp?ID=423,-122.285523,47.562628,"(47.562628, -122.285523)"
Childrens Play Areas,W. Magnolia Playfield,2518 34th Ave. W,http://www.seattle.gov/parks/park_detail.asp?ID=319,-122.400374,47.641467,"(47.641467, -122.400374)"
Childrens Play Areas,Garfield Playfield,23rd Ave. and E Cherry St.,http://www.seattle.gov/parks/park_detail.asp?ID=353,-122.300368,47.607697,"(47.607697, -122.300368)"
Childrens Play Areas,W. Queen Anne Playfield,1901 1st Ave. W,http://www.seattle.gov/parks/park_detail.asp?ID=330,-122.360588,47.635649,"(47.635649, -122.360588)"
Childrens Play Areas,International Childrens Park,700 S Lane St.,http://www.seattle.gov/parks/park_detail.asp?ID=364,-122.323333,47.596951,"(47.596951, -122.323333)"
Childrens Play Areas,Soundview Playfield,1590 NW 90th St.,http://www.seattle.gov/parks/park_detail.asp?ID=251,-122.380167,47.695277,"(47.695277, -122.380167)"
Childrens Play Areas,Othello Playground,4351 S Othello St.,http://www.seattle.gov/parks/park_detail.asp?ID=403,-122.277003,47.536357,"(47.536357, -122.277003)"
Childrens Play Areas,Salmon Bay Park,2001 NW Canoe Pl.,http://www.seattle.gov/parks/park_detail.asp?ID=249,-122.381343,47.679297,"(47.679297, -122.381343)"
Childrens Play Areas,Bhy Kracke Park,1215 5th Ave. N,http://www.seattle.gov/parks/park_detail.asp?ID=304,-122.34779,47.630346,"(47.630346, -122.34779)"
Childrens Play Areas,Carkeek Park,950 NW Carkeek Park Rd.,http://www.seattle.gov/parks/park_detail.asp?ID=240,-122.377699,47.713081,"(47.713081, -122.377699)"
Childrens Play Areas,Magnolia Park,1461 Magnolia Blvd. W,http://www.seattle.gov/parks/park_detail.asp?ID=317,-122.398099,47.633225,"(47.633225, -122.398099)"
Childrens Play Areas,Bryant Playground,4103 NE 65th St.,http://www.seattle.gov/parks/park_detail.asp?ID=482,-122.283367,47.675213,"(47.675213, -122.283367)"
Childrens Play Areas,Mayfair Park,2600 2nd Ave. N,http://www.seattle.gov/parks/park_detail.asp?ID=321,-122.3534,47.643218,"(47.643218, -122.3534)"
Childrens Play Areas,Beer Sheva Park,8650 55th Ave. S,http://www.seattle.gov/parks/park_detail.asp?ID=440,-122.263929,47.524687,"(47.524687, -122.263929)"
Childrens Play Areas,Spruce Street Mini Park,160 21st Ave.,http://www.seattle.gov/parks/park_detail.asp?ID=3117,-122.304647,47.602851,"(47.602851, -122.304647)"
Childrens Play Areas,Victory Heights Playground,1737 NE 106th St.,http://www.seattle.gov/parks/park_detail.asp?ID=438,-122.307885,47.706009,"(47.706009, -122.307885)"
Childrens Play Areas,University Playground,9th Ave. NE and NE 50th St.,http://www.seattle.gov/parks/park_detail.asp?ID=435,-122.319748,47.66424,"(47.66424, -122.319748)"
Childrens Play Areas,Sam Smith Park,1400 Martin Luther King Jr. Way S,http://www.seattle.gov/parks/park_detail.asp?ID=4242,-122.295257,47.590078,"(47.590078, -122.295257)"
Childrens Play Areas,Sacajawea Playground,1726 NE 94th St.,http://www.seattle.gov/parks/park_detail.asp?ID=394,-122.307483,47.697116,"(47.697116, -122.307483)"
Childrens Play Areas,Fairmount Playground,2627 39th Ave. SW,http://www.seattle.gov/parks/park_detail.asp?ID=4410,-122.380145,47.554241,"(47.554241, -122.380145)"
Childrens Play Areas,Loyal Heights Playfield,2101 NW 77th St.,http://www.seattle.gov/parks/park_detail.asp?ID=289,-122.384004,47.684674,"(47.684674, -122.384004)"
Childrens Play Areas,Dearborn Park,2919 S Brandon St.,http://www.seattle.gov/parks/park_detail.asp?ID=408,-122.294673,47.553121,"(47.553121, -122.294673)"
Childrens Play Areas,Montlake Totlot,1618 E Calhoun St.,http://www.seattle.gov/parks/park_detail.asp?ID=376,-122.298409,47.639556,"(47.639556, -122.298409)"
Childrens Play Areas,Dahl Playfield,7700 25th Ave. NE,http://www.seattle.gov/parks/park_detail.asp?ID=499,-122.300034,47.684193,"(47.684193, -122.300034)"
Childrens Play Areas,Roxhill Park,2850 SW Roxbury St.,http://www.seattle.gov/parks/park_detail.asp?ID=464,-122.369478,47.520313,"(47.520313, -122.369478)"
Childrens Play Areas,Peppi Playground,3233 E Spruce St.,http://www.seattle.gov/parks/park_detail.asp?ID=378,-122.290538,47.602536,"(47.602536, -122.290538)"
Childrens Play Areas,Coe Play Park,2420 7th Ave. W,http://www.seattle.gov/parks/park_detail.asp?ID=3985,-122.366014,47.640156,"(47.640156, -122.366014)"
Childrens Play Areas,W. Woodland Park Playground,Aurora Ave. N and N 59th St.,http://www.seattle.gov/parks/park_detail.asp?ID=292,-122.353458,47.671318,"(47.671318, -122.353458)"
Childrens Play Areas,Webster Playground,3014 NW 67th St.,http://www.seattle.gov/parks/park_detail.asp?ID=3894,-122.397851,47.677832,"(47.677832, -122.397851)"
Childrens Play Areas,Meridian Playground,4649 Sunnyside Ave. N,http://www.seattle.gov/parks/park_detail.asp?ID=1104,-122.332234,47.664372,"(47.664372, -122.332234)"
Childrens Play Areas,E.C. Hughes Playground,2805 SW Holden St.,http://www.seattle.gov/parks/park_detail.asp?ID=458,-122.368882,47.533398,"(47.533398, -122.368882)"
Childrens Play Areas,Roanoke Park,10th Ave. E and E Roanoke Park,http://www.seattle.gov/parks/park_detail.asp?ID=379,-122.320265,47.644257,"(47.644257, -122.320265)"
Childrens Play Areas,Genesee Park And Playfield,4316 S Genesee St.,http://www.seattle.gov/parks/park_detail.asp?ID=409,-122.277827,47.565406,"(47.565406, -122.277827)"
Childrens Play Areas,Warren G. Magnuson Park,6550 Sand Point Way NE,http://www.seattle.gov/parks/park_detail.asp?ID=398,-122.253383,47.681728,"(47.681728, -122.253383)"
Childrens Play Areas,Delridge Playfield,4458 Delridge Way SW,http://www.seattle.gov/parks/park_detail.asp?ID=450,-122.364169,47.563763,"(47.563763, -122.364169)"
Childrens Play Areas,Maple Leaf Playground,1020 NE 82nd St.,http://www.seattle.gov/parks/park_detail.asp?ID=3881,-122.31717,47.689365,"(47.689365, -122.31717)"
Childrens Play Areas,Volunteer Park,1247 15th Ave. E,http://www.seattle.gov/parks/park_detail.asp?ID=399,-122.313124,47.631961,"(47.631961, -122.313124)"
Childrens Play Areas,Burke Gilman Park,5201 Sand Point Way NE,http://www.seattle.gov/parks/park_detail.asp?ID=496,-122.281924,47.667323,"(47.667323, -122.281924)"
Childrens Play Areas,Highland Park Playground,1100 SW Cloverdale St,http://www.seattle.gov/parks/park_detail.asp?ID=457,-122.349364,47.526934,"(47.526934, -122.349364)"
Childrens Play Areas,South Park Playground,738 S Sullivan St.,http://www.seattle.gov/parks/park_detail.asp?ID=467,-122.32456,47.528332,"(47.528332, -122.32456)"
Childrens Play Areas,Lincoln Park - North,8011 Fauntleroy Way SW,http://www.seattle.gov/parks/park_detail.asp?ID=460,-122.394737,47.534622,"(47.534622, -122.394737)"
Childrens Play Areas,Gilman Playground,923 NW 54th St.,http://www.seattle.gov/parks/park_detail.asp?ID=242,-122.369201,47.666921,"(47.666921, -122.369201)"
Childrens Play Areas,Rainier Beach Playfield,8802 Rainier Ave. S,http://www.seattle.gov/parks/park_detail.asp?ID=422,-122.272693,47.524794,"(47.524794, -122.272693)"
Childrens Play Areas,Lowman Beach Park,7017 Beach Dr. SW,http://www.seattle.gov/parks/park_detail.asp?ID=461,-122.396728,47.540367,"(47.540367, -122.396728)"
Childrens Play Areas,Seward Park,5902 Lake Washington Blvd. S,http://www.seattle.gov/parks/park_detail.asp?ID=428,-122.256305,47.5495,"(47.5495, -122.256305)"
Childrens Play Areas,Mt. Baker Park,2521 Lake Park Dr. S,http://www.seattle.gov/parks/park_detail.asp?ID=419,-122.288933,47.57854,"(47.57854, -122.288933)"
Childrens Play Areas,Spring Street Mini Park,E Spring St. and 15th Ave.,http://www.seattle.gov/parks/park_detail.asp?ID=381,-122.312577,47.611881,"(47.611881, -122.312577)"
Childrens Play Areas,Lakewood Playground,5013 S Angeline St.,http://www.seattle.gov/parks/park_detail.asp?ID=414,-122.269678,47.559159,"(47.559159, -122.269678)"
Childrens Play Areas,12th West / West Howe Park,12th Ave. W and W Howe St.,http://www.seattle.gov/parks/park_detail.asp?ID=281,-122.372985,47.636097,"(47.636097, -122.372985)"
Childrens Play Areas,Sandel Playground,9053 1st Ave. NW,http://www.seattle.gov/parks/park_detail.asp?ID=250,-122.358863,47.695679,"(47.695679, -122.358863)"
Childrens Play Areas,Firehouse Mini Park,712 18th Ave.,http://www.seattle.gov/parks/park_detail.asp?ID=351,-122.308586,47.608433,"(47.608433, -122.308586)"
Childrens Play Areas,Jefferson Park,4165 16th Ave. S,http://www.seattle.gov/parks/park_detail.asp?ID=114,-122.308276,47.570498,"(47.570498, -122.308276)"
Childrens Play Areas,Plum Tree Park,1717 26th Ave.,http://www.seattle.gov/parks/park_detail.asp?ID=387,-122.299194,47.616997,"(47.616997, -122.299194)"
Childrens Play Areas,Ballard Playground,2644 NW 60th St.,http://www.seattle.gov/parks/park_detail.asp?ID=497,-122.392548,47.672648,"(47.672648, -122.392548)"
Childrens Play Areas,Soundview Terrace Play Area,2500 11th Ave. W,http://www.seattle.gov/parks/park_detail.asp?ID=3987,-122.371392,47.640554,"(47.640554, -122.371392)"
Childrens Play Areas,Meadowbrook Playfield,10533 35th Ave. NE,http://www.seattle.gov/parks/park_detail.asp?ID=352,-122.291132,47.705171,"(47.705171, -122.291132)"
Childrens Play Areas,Froula Playground,7200 12th Ave. NE,http://www.seattle.gov/parks/park_detail.asp?ID=287,-122.314682,47.680581,"(47.680581, -122.314682)"
Childrens Play Areas,Beacon Hill Playground,1902 13th Ave. S,http://www.seattle.gov/parks/park_detail.asp?ID=400,-122.315151,47.586522,"(47.586522, -122.315151)"
Childrens Play Areas,Matthews Beach Park,9300 51st Ave. NE,http://www.seattle.gov/parks/park_detail.asp?ID=347,-122.274052,47.696908,"(47.696908, -122.274052)"
Childrens Play Areas,Genesee Park And Playfield,4316 S Genesee St.,http://www.seattle.gov/parks/park_detail.asp?ID=409,-122.279755,47.562923,"(47.562923, -122.279755)"
Childrens Play Areas,Cowen Park,5849 15th Ave. NE,http://www.seattle.gov/parks/park_detail.asp?ID=483,-122.312357,47.672397,"(47.672397, -122.312357)"
Childrens Play Areas,B.F. Day Playground,4020 Fremont Ave. N,http://www.seattle.gov/parks/park_detail.asp?ID=241,-122.348906,47.655668,"(47.655668, -122.348906)"
Childrens Play Areas,Victory Creek Park,1059 Northgate Way,http://www.seattle.gov/parks/park_detail.asp?ID=4443,-122.315597,47.708809,"(47.708809, -122.315597)"
Childrens Play Areas,Pratt Park,1800 S Main St.,http://www.seattle.gov/parks/park_detail.asp?ID=390,-122.307872,47.600894,"(47.600894, -122.307872)"
Childrens Play Areas,Licton Springs Park,9536 Ashworth Ave. N,http://www.seattle.gov/parks/park_detail.asp?ID=286,-122.33934,47.698594,"(47.698594, -122.33934)"
Childrens Play Areas,Baker Park On Crown Hill,8347 14th Ave. NW,http://www.seattle.gov/parks/park_detail.asp?ID=2840,-122.374798,47.690165,"(47.690165, -122.374798)"
Childrens Play Areas,Madison Park,E. Madison St. and E. Howe St.,http://www.seattle.gov/parks/park_detail.asp?ID=369,-122.277581,47.635305,"(47.635305, -122.277581)"
Childrens Play Areas,Madison Park - North Beach,E. Madison St. and E. Howe St.,http://www.seattle.gov/parks/park_detail.asp?ID=369,-122.276776,47.639446,"(47.639446, -122.276776)"
Childrens Play Areas,Ravenna Park,5520 Ravenna Ave. NE,http://www.seattle.gov/parks/park_detail.asp?ID=391,-122.302928,47.6691,"(47.6691, -122.302928)"
Childrens Play Areas,High Point Playfield,6920 34th Ave. SW,http://www.seattle.gov/parks/park_detail.asp?ID=3941,-122.374645,47.539976,"(47.539976, -122.374645)"
Childrens Play Areas,Lakeridge Park And Playground,Rainier Ave. S from 68th St. to Cornell,http://www.seattle.gov/parks/park_detail.asp?ID=411,-122.246317,47.510415,"(47.510415, -122.246317)"
Childrens Play Areas,Madrona Playground,853 Lake Washington Blvd.,http://www.seattle.gov/parks/park_detail.asp?ID=370,-122.289665,47.611255,"(47.611255, -122.289665)"
Childrens Play Areas,Bitterlake Playfield,13035 Linden Ave. N,http://www.seattle.gov/parks/park_detail.asp?ID=288,-122.348735,47.723419,"(47.723419, -122.348735)"
Childrens Play Areas,Hiawatha Playfield,3951 SW Barton St.,http://www.seattle.gov/parks/park_detail.asp?ID=456,-122.384466,47.578962,"(47.578962, -122.384466)"
Childrens Play Areas,Golden Gardens Park,8498 Seaview Pl. NW,http://www.seattle.gov/parks/park_detail.asp?ID=243,-122.403738,47.691781,"(47.691781, -122.403738)"
Childrens Play Areas,Fairmount Playground - School,2627 39th Ave. SW,http://www.seattle.gov/parks/park_detail.asp?ID=4410,-122.380585,47.553412,"(47.553412, -122.380585)"
Childrens Play Areas,Rogers Playground,Eastlake Ave. E and E Roanoke St.,http://www.seattle.gov/parks/park_detail.asp?ID=380,-122.325067,47.642864,"(47.642864, -122.325067)"
Childrens Play Areas,Flo Ware Park,2800 S Jackson St.,http://www.seattle.gov/parks/park_detail.asp?ID=363,-122.295995,47.599475,"(47.599475, -122.295995)"
Childrens Play Areas,Lawton Park,3843 26th Ave. W,http://www.seattle.gov/parks/park_detail.asp?ID=316,-122.390922,47.655783,"(47.655783, -122.390922)"
Childrens Play Areas,Bayview Playground,2614 24th Ave. W,http://www.seattle.gov/parks/park_detail.asp?ID=303,-122.386906,47.644301,"(47.644301, -122.386906)"
Childrens Play Areas,Ravenna-Eckstein Cc Grounds,6535 Ravenna Ave. NE,http://www.seattle.gov/parks/park_detail.asp?ID=488,-122.304746,47.676702,"(47.676702, -122.304746)"
Community Centers,Yesler Community Center,917 E Yesler Way,http://www.seattle.gov/parks/centers/yeslercc.htm,-122.320772,47.601427,"(47.601427, -122.320772)"
Community Centers,Rainier Beach Community Center,8825 Rainier Ave. S,http://www.seattle.gov/parks/Centers/rainierbeach.htm,-122.270747,47.524042,"(47.524042, -122.270747)"
Community Centers,Rainier Community Center,4600 38th Ave S,http://www.seattle.gov/parks/centers/rainiercc.htm,-122.284537,47.561319,"(47.561319, -122.284537)"
Community Centers,Miller Community Center,330 19th Ave E,http://www.seattle.gov/parks/centers/miller.htm,-122.306852,47.621879,"(47.621879, -122.306852)"
Community Centers,Meadowbrook Community Center,10517 35th Ave NE,http://www.seattle.gov/parks/centers/meadowbrookcc.htm,-122.291539,47.705952,"(47.705952, -122.291539)"
Community Centers,Magnolia Community Center,2550 34TH AVE W,http://www.seattle.gov/parks/centers/magnoliacc.htm,-122.399828,47.641954,"(47.641954, -122.399828)"
Community Centers,Laurelhurst Community Center,4554 NE 41st St,http://www.seattle.gov/parks/centers/Laurelcc.htm,-122.277861,47.659175,"(47.659175, -122.277861)"
Community Centers,Langston Hughes Cultural Arts Center,104 17th Ave S,http://www.seattle.gov/parks/centers/langston.htm,-122.310087,47.601397,"(47.601397, -122.310087)"
Community Centers,International District Community Center,719 8th Avenue S,http://www.seattle.gov/parks/centers/IDChinatown.htm,-122.322831,47.596411,"(47.596411, -122.322831)"
Community Centers,High Point Community Center,6920 34th Ave. SW,http://www.seattle.gov/parks/centers/Highpt.htm,-122.3748,47.54065,"(47.54065, -122.3748)"
Community Centers,Hiawatha Community Center,2700 California Ave. SW,http://www.seattle.gov/parks/centers/Hiawatha.htm,-122.384601,47.578143,"(47.578143, -122.384601)"
Community Centers,Garfield Community Center,2323 E Cherry St,http://www.seattle.gov/parks/centers/garfieldcc.htm,-122.302395,47.607701,"(47.607701, -122.302395)"
Community Centers,Delridge Community Center,4501 Delridge Wy SW,http://www.seattle.gov/parks/centers/Delridge.htm,-122.364001,47.56333,"(47.56333, -122.364001)"
Community Centers,Ballard Community Center,6020 28th Ave NW,http://www.seattle.gov/parks/centers/Ballard.htm,-122.392405,47.67285,"(47.67285, -122.392405)"
Community Centers,Alki Community Center,5817 SW Stevens St.,http://www.seattle.gov/parks/centers/alkicc.htm,-122.406987,47.5776,"(47.5776, -122.406987)"
Community Centers,Queen Anne Community Center,1901 1st Ave. W,http://www.seattle.gov/parks/centers/queenannecc.htm,-122.359234,47.636143,"(47.636143, -122.359234)"
Community Centers,Van Asselt Community Center,2820 S Myrtle St,http://www.seattle.gov/parks/Centers/vanasseltcc.htm,-122.295241,47.539405,"(47.539405, -122.295241)"
Community Centers,Southwest Community Center,2801 SW Thistle St,http://www.seattle.gov/parks/centers/Swcc.htm,-122.368952,47.527887,"(47.527887, -122.368952)"
Community Centers,South Park Community Center,8319 8th Ave S,http://www.seattle.gov/parks/Centers/southpark.htm,-122.324018,47.528346,"(47.528346, -122.324018)"
Community Centers,Bitter Lake Community Center,13035 Linden Ave. N,http://www.seattle.gov/parks/centers/Bitterlk.htm,-122.348408,47.724314,"(47.724314, -122.348408)"
Community Centers,Ravenna/Eckstein Community Center,6535 Ravenna Ave. NE,http://www.seattle.gov/parks/centers/ravennaecksteincc.htm,-122.304141,47.676651,"(47.676651, -122.304141)"
Community Centers,Montlake Community Center,1618 E Calhoun St.,http://www.seattle.gov/parks/centers/montlakecc.htm,-122.31004,47.641613,"(47.641613, -122.31004)"
Community Centers,Loyal Heights Community Center,2101 NW 77th St.,http://www.seattle.gov/parks/centers/Loyalhtd.htm,-122.382945,47.68477,"(47.68477, -122.382945)"
Community Centers,Jefferson Community Center,3801 Beacon Ave S,http://www.seattle.gov/parks/centers/Jeffercc.htm,-122.308117,47.569779,"(47.569779, -122.308117)"
Community Centers,Green Lake Community Center,7201 E Green Lake Dr. N,http://www.seattle.gov/parks/centers/grnlakcc.htm,-122.328707,47.680378,"(47.680378, -122.328707)"
Computer/Media Center,917 E Yesler Way,Yesler Community Computer lab,http://www.seattle.gov/parks/centers/Yesler/lab.htm,-122.32133,47.60139,"(47.60139, -122.32133)"
Computer/Media Center,8825 Rainier AVE S,Rainier Beach Community Center,http://www.seattle.gov/parks/Centers/RainierBeach/lab.htm,-122.27074,47.52472,"(47.52472, -122.27074)"
Computer/Media Center,4501 Delridge WY SW,Delridge Community Center,http://www.seattle.gov/parks/Centers/delridge.htm,-122.36411,47.56309,"(47.56309, -122.36411)"
Computer/Media Center,2323 E Cherry St,Garfield Community Center,http://www.seattle.gov/parks/centers/garfieldcc.htm,-122.30225,47.60775,"(47.60775, -122.30225)"
Computer/Media Center,4600 38th Ave. S.,Rainier Community Center,http://www.seattle.gov/parks/centers/rainiercc.htm,-122.28435,47.56154,"(47.56154, -122.28435)"
Computer/Media Center,719 8th Ave S,International District Community Ctr,http://seattle.gov/parks/centers/IDChinatown.htm,-122.32283,47.59625,"(47.59625, -122.32283)"
Environmental Learning  Centers,Seward Park,5902 Lake Washington Blvd. S,http://www.seattle.gov/parks/parkspaces/sewardpark.htm,-122.256361,47.549617,"(47.549617, -122.256361)"
Environmental Learning  Centers,Discovery Park Enviro Learning Cntr,3801 W Government Way,http://www.seattle.gov/parks/Environment/discovparkindex.htm,-122.40563,47.658015,"(47.658015, -122.40563)"
Environmental Learning  Centers,Camp Long,5200 35th Ave. SW,http://www.seattle.gov/parks/environment/camplong.htm,-122.375075,47.555612,"(47.555612, -122.375075)"
Environmental Learning  Centers,Carkeek Environmental Learning Cntr,950 NW Carkeek Park Rd.,http://www.seattle.gov/parks/parkspaces/CarkeekPark/ELC.htm,-122.368666,47.711529,"(47.711529, -122.368666)"
Firepits,Alki Beack Park,1702 Alki Ave. SW,http://www.seattle.gov/parks/park_detail.asp?ID=445,-122.400127,47.586709,"(47.586709, -122.400127)"
Firepits,Golden Garden Park,8498 Seaview Pl. NW,http://www.seattle.gov/parks/park_detail.asp?ID=243,-122.40327,47.692105,"(47.692105, -122.40327)"
Fishing,Elliott Bay Park Fishing Pier,3130 Alaskan Way W,http://www.portseattle.org/community/resources/parks/index.shtml#elliottbay,-122.35727,47.61734,"(47.61734, -122.35727)"
Fishing,Lake Union Walkway,Fairview Ave N & E Galer St,http://www.seattle.gov/parks/Boats/fishpier.htm,-122.32607,47.63226,"(47.63226, -122.32607)"
Fishing,East Madison St. Dock,E MADISON ST & LAKE WASHINGTON BV E,http://www.seattle.gov/parks/Boats/fishpier.htm,-122.29244,47.62602,"(47.62602, -122.29244)"
Fishing,Eddie Vine Boat Ramp,8001 Seaview Ave. NW,http://www.seattle.gov/parks/park_detail.asp?ID=243,-122.40327,47.692105,"(47.692105, -122.40327)"
Fishing,Fairview Park,2900 Fairview Ave. E,http://www.seattle.gov/parks/park_detail.asp?ID=2975,-122.324917,47.647741,"(47.647741, -122.324917)"
Fishing,Belvoir Place,3659  42nd Ave. NE,http://www.seattle.gov/parks/park_detail.asp?ID=475,-122.283216,47.655123,"(47.655123, -122.283216)"
Fishing,Seacrest Park,1660 Harbor Ave. SW,http://www.seattle.gov/parks/park_detail.asp?ID=455,-122.378678,47.588951,"(47.588951, -122.378678)"
Fishing,Stan Sayres Memorial Park,3808 Lake Washington Blvd S,http://www.seattle.gov/parks/park_detail.asp?ID=425,-122.277143,47.571152,"(47.571152, -122.277143)"
Fishing,Terry Pettus Park,E Newton St. and Fairview Ave. E,http://www.seattle.gov/parks/park_detail.asp?ID=3889,-122.329689,47.636742,"(47.636742, -122.329689)"
Fishing,Waterfront Park,1301 Alaskan Way,http://www.seattle.gov/parks/park_detail.asp?ID=3973,-122.342196,47.606778,"(47.606778, -122.342196)"
Fishing,Rev. Murphy Fishing Pier @ Seward Park,5902 Lake Washington Blvd. S,http://www.seattle.gov/parks/environment/seward.htm,-122.25748,47.5492,"(47.5492, -122.25748)"
Fishing,Green Lake Park,7201 E Green Lake Dr. N,http://www.seattle.gov/parks/park_detail.asp?ID=307,-122.331029,47.681711,"(47.681711, -122.331029)"
Fishing,Mount Baker Park,2521 Lake Park Dr. S,http://www.seattle.gov/parks/park_detail.asp?ID=419,-122.288481,47.580957,"(47.580957, -122.288481)"
Gardens,Parsons Garden,650 W Highland Dr.,http://www.seattle.gov/parks/park_detail.asp?ID=324,-122.366084,47.629867,"(47.629867, -122.366084)"
Gardens,Katie Blacks Garden,12th Ave. S and S Atlantic St.,http://www.seattle.gov/parks/park_detail.asp?ID=3122,-122.317642,47.590421,"(47.590421, -122.317642)"
Gardens,Japanese Garden,1075 Lake Washington Blvd E,http://www.seattle.gov/parks/park_detail.asp?ID=9999,-122.2952,47.627312,"(47.627312, -122.2952)"
Gardens,Bradner Gardens,29th Ave. S. and South Grand St.,http://www.seattle.gov/parks/park_detail.asp?ID=401,-122.29543,47.587441,"(47.587441, -122.29543)"
Gardens,Woodland Park Zoo Rose Garden,Aurora Ave. N and N 59th St.,http://www.seattle.gov/parks/park_detail.asp?ID=292,-122.349939,47.665499,"(47.665499, -122.349939)"
Gardens,Washington Park Arboretum,2300 Arboretum Dr. E,http://www.seattle.gov/parks/park_detail.asp?ID=393,-122.296911,47.635268,"(47.635268, -122.296911)"
Gardens,Volunteer Park Conservatory,1400 E. Galer St.,http://www.seattle.gov/parks/park_detail.asp?ID=399,-122.315708,47.632063,"(47.632063, -122.315708)"
Gardens,Kubota Garden,9817 55th Ave. S,http://www.seattle.gov/parks/park_detail.asp?ID=415,-122.266125,47.513543,"(47.513543, -122.266125)"
Off Leash Areas,Genesee Park & Playfield,4316 S Genesee St.,http://www.seattle.gov/parks/offleash_detail.asp?ID=409,-122.276077,47.563948,"(47.563948, -122.276077)"
Off Leash Areas,Sand Point/Magnuson Park,6550 Sand Point Way NE,http://www.seattle.gov/parks/offleash_detail.asp?ID=398,-122.257095,47.682704,"(47.682704, -122.257095)"
Off Leash Areas,Woodland Park,Aurora Ave. N and N 59th St.,http://www.seattle.gov/parks/offleash_detail.asp?ID=292,-122.344309,47.670424,"(47.670424, -122.344309)"
Off Leash Areas,Plymouth Pillars Park,Broen Ave and Pike St,http://www.seattle.gov/parks/offleash_detail.asp?ID=4000,-122.329092,47.614124,"(47.614124, -122.329092)"
Off Leash Areas,Sam Smith Park/Blue Dog Pond,Martin Luther King Jr. Way & S Massachusetts St.,http://www.seattle.gov/parks/offleash_detail.asp?ID=4242,-122.298633,47.588889,"(47.588889, -122.298633)"
Off Leash Areas,Golden Gardens Park,8498 Seaview Pl. NW,http://www.seattle.gov/parks/offleash_detail.asp?ID=243,-122.400637,47.690902,"(47.690902, -122.400637)"
Off Leash Areas,Dr. Jose Rizal Park,1008 12th Ave. S,http://www.seattle.gov/parks/offleash_detail.asp?ID=433,-122.318094,47.593859,"(47.593859, -122.318094)"
Off Leash Areas,Northacres Park,12718 1st Ave. NE,http://www.seattle.gov/parks/offleash_detail.asp?ID=361,-122.326124,47.721775,"(47.721775, -122.326124)"
Off Leash Areas,Regrade Park,2251 3rd Ave.,http://www.seattle.gov/parks/offleash_detail.asp?ID=336,-122.344776,47.614346,"(47.614346, -122.344776)"
Off Leash Areas,Westcrest Park,8806 8th Ave SW,http://www.seattle.gov/parks/offleash_detail.asp?ID=468,-122.341719,47.525783,"(47.525783, -122.341719)"
Off Leash Areas,I-5 Colonnade,"Beneath I-5, South of E Howe St",http://www.seattle.gov/parks/offleash_detail.asp?ID=4446,-122.323409,47.634898,"(47.634898, -122.323409)"
Parks,Victor Steinbrueck Park,,http://www.seattle.gov/parks/park_detail.asp?ID=338,-122.343871,47.610153,"(47.610153, -122.343871)"
Parks,Banner Way Triangles,,http://www.seattle.gov/parks/park_detail.asp?ID=4073,-122.32343,47.685762,"(47.685762, -122.32343)"
Parks,Waterway 19,,http://www.seattle.gov/parks/park_detail.asp?ID=4083,-122.332567,47.646349,"(47.646349, -122.332567)"
Parks,Atlantic Street Park,S ATLANTIC ST\21ST AVE S,http://www.seattle.gov/parks/park_detail.asp?ID=4243,-122.30566,47.589165,"(47.589165, -122.30566)"
Parks,Victory Creek Park,1059 NORTHGATE WAY,http://www.seattle.gov/parks/park_detail.asp?ID=4443,-122.315554,47.709155,"(47.709155, -122.315554)"
Parks,Westcrest Park,,http://www.seattle.gov/parks/park_detail.asp?ID=468,-122.33989,47.524762,"(47.524762, -122.33989)"
Parks,Cowen Park,,http://www.seattle.gov/parks/park_detail.asp?ID=483,-122.313074,47.672596,"(47.672596, -122.313074)"
Parks,Lake City Park,12359 LAKE CITY WAY NE,http://www.seattle.gov/parks/park_detail.asp?ID=487,-122.295875,47.71911,"(47.71911, -122.295875)"
Parks,Westlake Greenbelt,,http://www.seattle.gov/parks/park_detail.asp?ID=494,-122.34338,47.641586,"(47.641586, -122.34338)"
Parks,York Park,3650 RENTON AVE SOUTH,http://www.seattle.gov/parks/park_detail.asp?ID=580,-122.295537,47.570461,"(47.570461, -122.295537)"
Parks,Christie Park,,http://www.seattle.gov/parks/park_detail.asp?ID=595,-122.319072,47.659309,"(47.659309, -122.319072)"
Parks,Ward Springs Park,925 4TH AVE N,http://www.seattle.gov/parks/park_detail.asp?ID=763,-122.349245,47.627746,"(47.627746, -122.349245)"
Parks,Endolyne Park,,http://www.seattle.gov/parks/park_detail.asp?ID=1653,-122.39438,47.514542,"(47.514542, -122.39438)"
Parks,St Marks Greenbelt,,http://www.seattle.gov/parks/park_detail.asp?ID=2848,-122.322174,47.63115,"(47.63115, -122.322174)"
Parks,Fairview Park,,http://www.seattle.gov/parks/park_detail.asp?ID=2975,-122.324917,47.647741,"(47.647741, -122.324917)"
Parks,Lambert Place,38TH AVE E / E MADISON ST,http://www.seattle.gov/parks/park_detail.asp?ID=3096,-122.283837,47.632017,"(47.632017, -122.283837)"
Parks,Cal Anderson Park,,http://www.seattle.gov/parks/park_detail.asp?ID=3102,-122.319134,47.617013,"(47.617013, -122.319134)"
Parks,West Ewing Mini Park,,http://www.seattle.gov/parks/park_detail.asp?ID=3694,-122.360602,47.65205,"(47.65205, -122.360602)"
Parks,Gerber Park,,http://www.seattle.gov/parks/park_detail.asp?ID=3759,-122.296568,47.607709,"(47.607709, -122.296568)"
Parks,Terry Pettus Park,,http://www.seattle.gov/parks/park_detail.asp?ID=3889,-122.329689,47.636741,"(47.636741, -122.329689)"
Parks,Cascade Place,5199 PALMER CT NW,http://www.seattle.gov/parks/park_detail.asp?ID=3902,-122.358092,47.666216,"(47.666216, -122.358092)"
Parks,Tilikum Place,5TH AVE & DENNY WAY,http://www.seattle.gov/parks/park_detail.asp?ID=3909,-122.347411,47.618382,"(47.618382, -122.347411)"
Parks,Kobe Terrace,,http://www.seattle.gov/parks/park_detail.asp?ID=3915,-122.324494,47.60042,"(47.60042, -122.324494)"
Parks,Stevens Place,,http://www.seattle.gov/parks/park_detail.asp?ID=3919,-122.310563,47.577122,"(47.577122, -122.310563)"
Parks,College Street Park,2915 S COLLEGE ST,http://www.seattle.gov/parks/park_detail.asp?ID=3922,-122.294616,47.582697,"(47.582697, -122.294616)"
Parks,Sierra Place,,http://www.seattle.gov/parks/park_detail.asp?ID=3928,-122.282492,47.573282,"(47.573282, -122.282492)"
Parks,Fletcher Place,,http://www.seattle.gov/parks/park_detail.asp?ID=3948,-122.261484,47.519093,"(47.519093, -122.261484)"
Parks,Waterfront Park,,http://www.seattle.gov/parks/park_detail.asp?ID=3973,-122.342196,47.606778,"(47.606778, -122.342196)"
Parks,Highland Place,HIGHLAND DR / 1ST AVE N,http://www.seattle.gov/parks/park_detail.asp?ID=3979,-122.355466,47.629656,"(47.629656, -122.355466)"
Parks,Crown Hill Glen,8735 19TH AVE NW,http://www.seattle.gov/parks/park_detail.asp?ID=4070,-122.381394,47.693703,"(47.693703, -122.381394)"
Parks,Lewis Park,,http://www.seattle.gov/parks/park_detail.asp?ID=4076,-122.314435,47.592857,"(47.592857, -122.314435)"
Parks,South Day Street Park,1400 LAKESIDE AVE S,http://www.seattle.gov/parks/park_detail.asp?ID=4082,-122.285724,47.590365,"(47.590365, -122.285724)"
Parks,Greg Davis Park,,http://www.seattle.gov/parks/park_detail.asp?ID=4157,-122.366001,47.55437,"(47.55437, -122.366001)"
Parks,Northwest 60th Viewpoint,,http://www.seattle.gov/parks/park_detail.asp?ID=4161,-122.406561,47.672185,"(47.672185, -122.406561)"
Parks,Sam Smith Park,,http://www.seattle.gov/parks/park_detail.asp?ID=4242,-122.297816,47.589982,"(47.589982, -122.297816)"
Parks,Taejon Park,1144 STURGUS AVE S,http://www.seattle.gov/parks/park_detail.asp?ID=4400,-122.312163,47.591919,"(47.591919, -122.312163)"
Parks,A. B. Ernst Park,723 N 35TH ST,http://www.seattle.gov/parks/park_detail.asp?ID=4404,-122.348825,47.650088,"(47.650088, -122.348825)"
Parks,Ravenna Woods,,http://www.seattle.gov/parks/park_detail.asp?ID=4411,-122.303161,47.662559,"(47.662559, -122.303161)"
Parks,Hitts Hill Park,,http://www.seattle.gov/parks/park_detail.asp?ID=4413,-122.28455,47.554207,"(47.554207, -122.28455)"
Parks,Oxbow Park,6430 Corson Ave S,http://www.seattle.gov/parks/park_detail.asp?ID=4416,-122.321583,47.54499,"(47.54499, -122.321583)"
Parks,Fremont Peak Park,4351 PALATINE AVE N,http://www.seattle.gov/parks/park_detail.asp?ID=4424,-122.356671,47.661108,"(47.661108, -122.356671)"
Parks,Ballard Corners Park,17th Ave NW & NW 63rd St,http://www.seattle.gov/parks/park_detail.asp?ID=4428,-122.379116,47.674186,"(47.674186, -122.379116)"
Parks,Smith Cove Park,23RD AVE W / W MARINA PL,http://www.seattle.gov/parks/park_detail.asp?ID=4433,-122.387681,47.632602,"(47.632602, -122.387681)"
Parks,Madison Park North Beach,,http://www.seattle.gov/parks/park_detail.asp?ID=4441,-122.276119,47.639083,"(47.639083, -122.276119)"
Parks,Pinehurst Pocket Park,11700 19TH AVE NE,http://www.seattle.gov/parks/park_detail.asp?ID=4444,-122.308222,47.714186,"(47.714186, -122.308222)"
Parks,I-5 Colonnade,,http://www.seattle.gov/parks/park_detail.asp?ID=4446,-122.323409,47.634898,"(47.634898, -122.323409)"
Parks,Solstice Park,,http://www.seattle.gov/parks/park_detail.asp?ID=4453,-122.390347,47.536413,"(47.536413, -122.390347)"
Parks,Horiuchi Park,156 BOREN AVE,http://www.seattle.gov/parks/park_detail.asp?ID=43,-122.318981,47.603132,"(47.603132, -122.318981)"
Parks,Sw Queen Anne Greenbelt,,http://www.seattle.gov/parks/park_detail.asp?ID=234,-122.373209,47.633353,"(47.633353, -122.373209)"
Parks,Blue Ridge Places,,http://www.seattle.gov/parks/park_detail.asp?ID=239,-122.381198,47.703194,"(47.703194, -122.381198)"
Parks,Golden Gardens Park,,http://www.seattle.gov/parks/park_detail.asp?ID=243,-122.403269,47.692105,"(47.692105, -122.403269)"
Parks,Kiwanis Memorial Preserve Park,,http://www.seattle.gov/parks/park_detail.asp?ID=246,-122.401004,47.66197,"(47.66197, -122.401004)"
Parks,Salmon Bay Park,,http://www.seattle.gov/parks/park_detail.asp?ID=249,-122.382145,47.679517,"(47.679517, -122.382145)"
Parks,Duwamish Head Greenbelt,,http://www.seattle.gov/parks/park_detail.asp?ID=260,-122.395546,47.583406,"(47.583406, -122.395546)"
Parks,Leschi-Lake Dell Natural Area,3525 E TERRACE ST,http://www.seattle.gov/parks/park_detail.asp?ID=263,-122.287835,47.604695,"(47.604695, -122.287835)"
Parks,Piers 62 And 63,,http://www.seattle.gov/parks/park_detail.asp?ID=274,-122.345238,47.608657,"(47.608657, -122.345238)"
Parks,Wolf Creek Ravine Natural Area,,http://www.seattle.gov/parks/park_detail.asp?ID=278,-122.352314,47.639775,"(47.639775, -122.352314)"
Parks,Twelfth West And W Howe Park,12th Ave W / W Howe St,http://www.seattle.gov/parks/park_detail.asp?ID=281,-122.373243,47.636418,"(47.636418, -122.373243)"
Parks,East Duwamish Greenbelt,1827 11TH AVE SOUTH,http://www.seattle.gov/parks/park_detail.asp?ID=283,-122.318448,47.586761,"(47.586761, -122.318448)"
Parks,Woodland Park,,http://www.seattle.gov/parks/park_detail.asp?ID=292,-122.344218,47.668907,"(47.668907, -122.344218)"
Parks,3001 E Madison,,http://www.seattle.gov/parks/park_detail.asp?ID=296,-122.293173,47.625169,"(47.625169, -122.293173)"
Parks,Marvins Garden,,http://www.seattle.gov/parks/park_detail.asp?ID=298,-122.384972,47.667976,"(47.667976, -122.384972)"
Parks,Bhy Kracke Park,,http://www.seattle.gov/parks/park_detail.asp?ID=304,-122.348402,47.630425,"(47.630425, -122.348402)"
Parks,Green Lake Park,,http://www.seattle.gov/parks/park_detail.asp?ID=307,-122.331029,47.681711,"(47.681711, -122.331029)"
Parks,Discovery Park,,http://www.seattle.gov/parks/park_detail.asp?ID=310,-122.416228,47.660498,"(47.660498, -122.416228)"
Parks,Northacres Park,,http://www.seattle.gov/parks/park_detail.asp?ID=361,-122.326993,47.721559,"(47.721559, -122.326993)"
Parks,Lakeview Park,,http://www.seattle.gov/parks/park_detail.asp?ID=365,-122.284731,47.62205,"(47.62205, -122.284731)"
Parks,Madison Park,,http://www.seattle.gov/parks/park_detail.asp?ID=369,-122.276692,47.63561,"(47.63561, -122.276692)"
Parks,East Montlake Park,,http://www.seattle.gov/parks/park_detail.asp?ID=374,-122.301265,47.646019,"(47.646019, -122.301265)"
Parks,South Passage Point Park,,http://www.seattle.gov/parks/park_detail.asp?ID=377,-122.322489,47.652204,"(47.652204, -122.322489)"
Parks,Summit Place,,http://www.seattle.gov/parks/park_detail.asp?ID=383,-122.325708,47.627081,"(47.627081, -122.325708)"
Parks,William Grose Park,1814 30TH AVE E,http://www.seattle.gov/parks/park_detail.asp?ID=385,-122.29294,47.618021,"(47.618021, -122.29294)"
Parks,Pratt Park,,http://www.seattle.gov/parks/park_detail.asp?ID=390,-122.307463,47.600705,"(47.600705, -122.307463)"
Parks,Leschi Park,100 LAKESIDE AV S,http://www.seattle.gov/parks/park_detail.asp?ID=392,-122.290256,47.599506,"(47.599506, -122.290256)"
Parks,Warren G. Magnuson Park,6550 Sand Point Wy NE,http://www.seattle.gov/parks/park_detail.asp?ID=398,-122.255086,47.680304,"(47.680304, -122.255086)"
Parks,Colman Park,,http://www.seattle.gov/parks/park_detail.asp?ID=405,-122.288611,47.585469,"(47.585469, -122.288611)"
Parks,Lakeridge Park,,http://www.seattle.gov/parks/park_detail.asp?ID=411,-122.247429,47.506033,"(47.506033, -122.247429)"
Parks,Pritchard Island Beach,,http://www.seattle.gov/parks/park_detail.asp?ID=420,-122.262831,47.52895,"(47.52895, -122.262831)"
Parks,"John C. Little, Sr. Park",6961 37th Avenue S,http://www.seattle.gov/parks/park_detail.asp?ID=429,-122.286687,47.539047,"(47.539047, -122.286687)"
Parks,View Ridge Playfield,,http://www.seattle.gov/parks/park_detail.asp?ID=444,-122.281073,47.680361,"(47.680361, -122.281073)"
Parks,California Place,CALIFORNIA AVE SW / SW HILL ST,http://www.seattle.gov/parks/park_detail.asp?ID=448,-122.386696,47.585641,"(47.585641, -122.386696)"
Parks,Fauntleroy Park,,http://www.seattle.gov/parks/park_detail.asp?ID=453,-122.383222,47.5192,"(47.5192, -122.383222)"
Parks,Lincoln Park,,http://www.seattle.gov/parks/park_detail.asp?ID=460,-122.396012,47.531177,"(47.531177, -122.396012)"
Parks,Roxhill Park,,http://www.seattle.gov/parks/park_detail.asp?ID=464,-122.368882,47.519496,"(47.519496, -122.368882)"
Parks,Cesar Chavez Park,,http://www.seattle.gov/parks/park_detail.asp?ID=4448,-122.406373,47.661011,"(47.661011, -122.406373)"
Parks,North Passage Point Park,,http://www.seattle.gov/parks/park_detail.asp?ID=2956,-122.32243,47.653962,"(47.653962, -122.32243)"
Parks,Open Water Park,ELLIOTT BAY MARINA TO PIER 91,http://www.seattle.gov/parks/park_detail.asp?ID=3005,-122.386693,47.629555,"(47.629555, -122.386693)"
Parks,Interlaken Park,,http://www.seattle.gov/parks/park_detail.asp?ID=3023,-122.308316,47.636257,"(47.636257, -122.308316)"
Parks,Viretta Park,,http://www.seattle.gov/parks/park_detail.asp?ID=3098,-122.282003,47.61875,"(47.61875, -122.282003)"
Parks,Spruce Street Mini Park,,http://www.seattle.gov/parks/park_detail.asp?ID=3117,-122.304648,47.603091,"(47.603091, -122.304648)"
Parks,Jimi Hendrix Park,,http://www.seattle.gov/parks/park_detail.asp?ID=3121,-122.300842,47.588907,"(47.588907, -122.300842)"
Parks,Harvard-Miller/Roanoke Annex,,http://www.seattle.gov/parks/park_detail.asp?ID=3695,-122.321643,47.641091,"(47.641091, -122.321643)"
Parks,Union Bay Boglands #2,,http://www.seattle.gov/parks/park_detail.asp?ID=3751,-122.286524,47.656318,"(47.656318, -122.286524)"
Parks,Keystone Place,,http://www.seattle.gov/parks/park_detail.asp?ID=3880,-122.333769,47.670304,"(47.670304, -122.333769)"
Parks,Wedgwood Square,,http://www.seattle.gov/parks/park_detail.asp?ID=3899,-122.294772,47.688151,"(47.688151, -122.294772)"
Parks,Sunset Place,1ST AVE NW /  NW 52ND ST,http://www.seattle.gov/parks/park_detail.asp?ID=3901,-122.357602,47.666686,"(47.666686, -122.357602)"
Parks,Hyde Place,,http://www.seattle.gov/parks/park_detail.asp?ID=3905,-122.282887,47.632304,"(47.632304, -122.282887)"
Parks,Blaine Place,,http://www.seattle.gov/parks/park_detail.asp?ID=3907,-122.364152,47.626809,"(47.626809, -122.364152)"
Parks,First Hill Park,,http://www.seattle.gov/parks/park_detail.asp?ID=3910,-122.325512,47.611906,"(47.611906, -122.325512)"
Parks,Alvin Larkins Park,,http://www.seattle.gov/parks/park_detail.asp?ID=3914,-122.288745,47.614318,"(47.614318, -122.288745)"
Parks,Nantes Park,5062 SW ADMIRAL WAY,http://www.seattle.gov/parks/park_detail.asp?ID=3916,-122.397063,47.579565,"(47.579565, -122.397063)"
Parks,Mcclellan Place,,http://www.seattle.gov/parks/park_detail.asp?ID=3918,-122.311952,47.578768,"(47.578768, -122.311952)"
Parks,Fauntleroy Place,,http://www.seattle.gov/parks/park_detail.asp?ID=3921,-122.379834,47.562715,"(47.562715, -122.379834)"
Parks,Martin Luther King Jr Memorial,,http://www.seattle.gov/parks/park_detail.asp?ID=3923,-122.297163,47.582757,"(47.582757, -122.297163)"
Parks,Katharine Colman Triangle,,http://www.seattle.gov/parks/park_detail.asp?ID=3942,-122.38779,47.520876,"(47.520876, -122.38779)"
Parks,Lakeridge Playground,,http://www.seattle.gov/parks/park_detail.asp?ID=3972,-122.246841,47.510321,"(47.510321, -122.246841)"
Parks,Ne 60th Street Park,5TH AVE NE/NE 60TH ST,http://www.seattle.gov/parks/park_detail.asp?ID=3975,-122.322634,47.671728,"(47.671728, -122.322634)"
Parks,Eastlake Triangle,,http://www.seattle.gov/parks/park_detail.asp?ID=3977,-122.328918,47.62841,"(47.62841, -122.328918)"
Parks,Denny Blaine Lake Park,,http://www.seattle.gov/parks/park_detail.asp?ID=3980,-122.284838,47.61833,"(47.61833, -122.284838)"
Parks,Stevens Triangle,,http://www.seattle.gov/parks/park_detail.asp?ID=3981,-122.283592,47.619443,"(47.619443, -122.283592)"
Parks,Denny Blaine Park,,http://www.seattle.gov/parks/park_detail.asp?ID=3982,-122.280548,47.62011,"(47.62011, -122.280548)"
Parks,Coe Play Park,,http://www.seattle.gov/parks/park_detail.asp?ID=3985,-122.365952,47.640108,"(47.640108, -122.365952)"
Parks,Soundview Terrace,,http://www.seattle.gov/parks/park_detail.asp?ID=3987,-122.37141,47.640849,"(47.640849, -122.37141)"
Parks,Puget Creek Greenspace,SW BRANDON ST/19TH AVE SW,http://www.seattle.gov/parks/park_detail.asp?ID=3993,-122.358556,47.55187,"(47.55187, -122.358556)"
Parks,Broadview Park,,http://www.seattle.gov/parks/park_detail.asp?ID=3997,-122.355836,47.717936,"(47.717936, -122.355836)"
Parks,University Lake Shore Place,4275 NE 125TH ST,http://www.seattle.gov/parks/park_detail.asp?ID=3998,-122.28006,47.718937,"(47.718937, -122.28006)"
Parks,Rainier Place,298 NW 53RD ST,http://www.seattle.gov/parks/park_detail.asp?ID=3999,-122.359434,47.667567,"(47.667567, -122.359434)"
Parks,Plymouth Pillars Park,,http://www.seattle.gov/parks/park_detail.asp?ID=4000,-122.329092,47.614124,"(47.614124, -122.329092)"
Parks,Inverness Ravine Park,,http://www.seattle.gov/parks/park_detail.asp?ID=4001,-122.280809,47.691145,"(47.691145, -122.280809)"
Parks,Madrona Briar Patch,,http://www.seattle.gov/parks/park_detail.asp?ID=4005,-122.284261,47.615231,"(47.615231, -122.284261)"
Parks,Union Station Square,,http://www.seattle.gov/parks/park_detail.asp?ID=4007,-122.330086,47.599362,"(47.599362, -122.330086)"
Parks,Mcgilvra Place,,http://www.seattle.gov/parks/park_detail.asp?ID=4008,-122.313032,47.614233,"(47.614233, -122.313032)"
Parks,Parkmont Place,MAGNOLIA BLVD W/W PARKMONT PL,http://www.seattle.gov/parks/park_detail.asp?ID=4009,-122.410083,47.640142,"(47.640142, -122.410083)"
Parks,Fremont Canal Park,,http://www.seattle.gov/parks/park_detail.asp?ID=4011,-122.357864,47.651802,"(47.651802, -122.357864)"
Parks,Eastmont Place,,http://www.seattle.gov/parks/park_detail.asp?ID=4012,-122.405566,47.63769,"(47.63769, -122.405566)"
Parks,Thayer Place,,http://www.seattle.gov/parks/park_detail.asp?ID=4014,-122.250038,47.510613,"(47.510613, -122.250038)"
Parks,Miller Triangle,,http://www.seattle.gov/parks/park_detail.asp?ID=4015,-122.305711,47.620311,"(47.620311, -122.305711)"
Parks,Williams Place,,http://www.seattle.gov/parks/park_detail.asp?ID=4016,-122.313094,47.619809,"(47.619809, -122.313094)"
Parks,Corliss Place,N 50TH ST / KEYSTONE PL N,http://www.seattle.gov/parks/park_detail.asp?ID=4017,-122.330874,47.665198,"(47.665198, -122.330874)"
Parks,Crescent Place,,http://www.seattle.gov/parks/park_detail.asp?ID=4018,-122.333029,47.684317,"(47.684317, -122.333029)"
Parks,Mount Claire Park,,http://www.seattle.gov/parks/park_detail.asp?ID=4019,-122.28642,47.580737,"(47.580737, -122.28642)"
Parks,Bellevue Place,,http://www.seattle.gov/parks/park_detail.asp?ID=4022,-122.327658,47.626904,"(47.626904, -122.327658)"
Parks,Lakewood Triangle,,http://www.seattle.gov/parks/park_detail.asp?ID=4024,-122.28372,47.576058,"(47.576058, -122.28372)"
Parks,Beck Place,,http://www.seattle.gov/parks/park_detail.asp?ID=4028,-122.312027,47.671888,"(47.671888, -122.312027)"
Parks,Columbia Park,,http://www.seattle.gov/parks/park_detail.asp?ID=4034,-122.287395,47.559792,"(47.559792, -122.287395)"
Parks,Rainbow Point,625 NE BANNER PLACE,http://www.seattle.gov/parks/park_detail.asp?ID=4045,-122.320476,47.682713,"(47.682713, -122.320476)"
Parks,South Park Meadow,,http://www.seattle.gov/parks/park_detail.asp?ID=4048,-122.323649,47.520795,"(47.520795, -122.323649)"
Parks,Carleton Highlands,3298 Perkins Lane W.,http://www.seattle.gov/parks/park_detail.asp?ID=4049,-122.415934,47.650028,"(47.650028, -122.415934)"
Parks,Lynn Street Mini Park,,http://www.seattle.gov/parks/park_detail.asp?ID=4075,-122.32975,47.639849,"(47.639849, -122.32975)"
Parks,Ravenna Park Triangle,,http://www.seattle.gov/parks/park_detail.asp?ID=4080,-122.30367,47.668089,"(47.668089, -122.30367)"
Parks,Camp Long,5200 35TH AVE SW,http://www.seattle.gov/parks/park_detail.asp?ID=4154,-122.373161,47.556242,"(47.556242, -122.373161)"
Parks,Twelfth Avenue South Viewpoint,,http://www.seattle.gov/parks/park_detail.asp?ID=4159,-122.317764,47.577955,"(47.577955, -122.317764)"
Parks,Laurelhurst Triangle,46TH AV NE/E LAURELHURST DR NE,http://www.seattle.gov/parks/park_detail.asp?ID=4162,-122.277487,47.652696,"(47.652696, -122.277487)"
Parks,Cedar Park,3707 NE 135TH STREET,http://www.seattle.gov/parks/park_detail.asp?ID=4167,-122.288042,47.725808,"(47.725808, -122.288042)"
Parks,Ballard Commons Park,5701 22ND AVENUE NW,http://www.seattle.gov/parks/park_detail.asp?ID=4278,-122.385487,47.670549,"(47.670549, -122.385487)"
Parks,Noras Woods,720 29TH AVE,http://www.seattle.gov/parks/park_detail.asp?ID=4403,-122.294573,47.608732,"(47.608732, -122.294573)"
Parks,Thyme Patch Park,2853 NW 58TH ST,http://www.seattle.gov/parks/park_detail.asp?ID=4405,-122.395214,47.670709,"(47.670709, -122.395214)"
Parks,Greenwood Park,8905 FREMONT AVE N,http://www.seattle.gov/parks/park_detail.asp?ID=4408,-122.350647,47.693048,"(47.693048, -122.350647)"
Parks,Fairmount Park,,http://www.seattle.gov/parks/park_detail.asp?ID=4410,-122.382219,47.580238,"(47.580238, -122.382219)"
Parks,Herrings House Park (Tulaltx),4540 West Marginal Way,http://www.seattle.gov/parks/park_detail.asp?ID=4412,-122.349545,47.561514,"(47.561514, -122.349545)"
Parks,Belltown Cottage Park,2156 Elliott Ave,http://www.seattle.gov/parks/park_detail.asp?ID=4415,-122.350776,47.613889,"(47.613889, -122.350776)"
Parks,Linden Orchard Park,N 67th St / Linden Ave N,http://www.seattle.gov/parks/park_detail.asp?ID=4419,-122.347727,47.678016,"(47.678016, -122.347727)"
Parks,Trolley Hill Park,5TH AVE N / BLAINE ST,http://www.seattle.gov/parks/park_detail.asp?ID=4421,-122.347039,47.635143,"(47.635143, -122.347039)"
Parks,Maclean Park,1920 TAYLOR AVE N,http://www.seattle.gov/parks/park_detail.asp?ID=4422,-122.345276,47.636192,"(47.636192, -122.345276)"
Parks,Homer Harris Park,2401 E HOWELL ST,http://www.seattle.gov/parks/park_detail.asp?ID=4426,-122.300994,47.617309,"(47.617309, -122.300994)"
Parks,Union Bay Boglands #1,,http://www.seattle.gov/parks/park_detail.asp?ID=4431,-122.287122,47.657838,"(47.657838, -122.287122)"
Parks,Counterbalance Park,700 QUEEN ANNE AVE N,http://www.seattle.gov/parks/park_detail.asp?ID=4438,-122.356323,47.625683,"(47.625683, -122.356323)"
Parks,Lake People Park (Xacuabs),,http://www.seattle.gov/parks/park_detail.asp?ID=4439,-122.292012,47.569133,"(47.569133, -122.292012)"
Parks,Northgate Park,10548 5TH AVE NE,http://www.seattle.gov/parks/park_detail.asp?ID=4445,-122.322424,47.705194,"(47.705194, -122.322424)"
Parks,Bitter Lake Open Space Park,,http://www.seattle.gov/parks/park_detail.asp?ID=4450,-122.348583,47.731181,"(47.731181, -122.348583)"
Parks,Northlake Park,,http://www.seattle.gov/parks/park_detail.asp?ID=4452,-122.320826,47.654365,"(47.654365, -122.320826)"
Parks,Observatory Courts,,http://www.seattle.gov/parks/park_detail.asp?ID=322,-122.355134,47.631342,"(47.631342, -122.355134)"
Parks,Occidental Square,,http://www.seattle.gov/parks/park_detail.asp?ID=323,-122.333272,47.600463,"(47.600463, -122.333272)"
Parks,Pioneer Square,,http://www.seattle.gov/parks/park_detail.asp?ID=325,-122.333886,47.602076,"(47.602076, -122.333886)"
Parks,Prefontaine Place,,http://www.seattle.gov/parks/park_detail.asp?ID=326,-122.330883,47.601844,"(47.601844, -122.330883)"
Parks,David Rodgers Park,,http://www.seattle.gov/parks/park_detail.asp?ID=331,-122.359485,47.644135,"(47.644135, -122.359485)"
Parks,Westlake Park,,http://www.seattle.gov/parks/park_detail.asp?ID=332,-122.33724,47.611099,"(47.611099, -122.33724)"
Parks,Lake City Memorial Triangle,,http://www.seattle.gov/parks/park_detail.asp?ID=333,-122.295266,47.718819,"(47.718819, -122.295266)"
Parks,Westlake Square,,http://www.seattle.gov/parks/park_detail.asp?ID=334,-122.337285,47.613627,"(47.613627, -122.337285)"
Parks,Regrade Park,,http://www.seattle.gov/parks/park_detail.asp?ID=336,-122.344775,47.614331,"(47.614331, -122.344775)"
Parks,Mcgraw Square,,http://www.seattle.gov/parks/park_detail.asp?ID=339,-122.337587,47.61299,"(47.61299, -122.337587)"
Parks,Kerry Park And Viewpoint,,http://www.seattle.gov/parks/park_detail.asp?ID=342,-122.359873,47.629024,"(47.629024, -122.359873)"
Parks,Thorndyke Park,,http://www.seattle.gov/parks/park_detail.asp?ID=343,-122.390161,47.635099,"(47.635099, -122.390161)"
Parks,Lake Union Park,,http://www.seattle.gov/parks/park_detail.asp?ID=344,-122.337477,47.627142,"(47.627142, -122.337477)"
Parks,Powell Barnett Park,,http://www.seattle.gov/parks/park_detail.asp?ID=345,-122.295998,47.605196,"(47.605196, -122.295998)"
Parks,Belmont Place,,http://www.seattle.gov/parks/park_detail.asp?ID=346,-122.324408,47.625727,"(47.625727, -122.324408)"
Parks,Boren Place,,http://www.seattle.gov/parks/park_detail.asp?ID=348,-122.320952,47.604999,"(47.604999, -122.320952)"
Parks,Boylston Place,,http://www.seattle.gov/parks/park_detail.asp?ID=349,-122.32094,47.609976,"(47.609976, -122.32094)"
Parks,Firehouse Mini Park,,http://www.seattle.gov/parks/park_detail.asp?ID=351,-122.308558,47.608448,"(47.608448, -122.308558)"
Parks,Grand Army Cemetery,,http://www.seattle.gov/parks/park_detail.asp?ID=354,-122.316261,47.636461,"(47.636461, -122.316261)"
Parks,Harrison Ridge Greenbelt,,http://www.seattle.gov/parks/park_detail.asp?ID=356,-122.290339,47.619711,"(47.619711, -122.290339)"
Parks,Prentis I. Frazier Park,,http://www.seattle.gov/parks/park_detail.asp?ID=357,-122.301614,47.622895,"(47.622895, -122.301614)"
Parks,Hing Hay Park,,http://www.seattle.gov/parks/park_detail.asp?ID=358,-122.325435,47.598609,"(47.598609, -122.325435)"
Parks,Howell Park,,http://www.seattle.gov/parks/park_detail.asp?ID=359,-122.280314,47.617519,"(47.617519, -122.280314)"
Parks,Flo Ware Park,2800 S JACKSON ST,http://www.seattle.gov/parks/park_detail.asp?ID=363,-122.295868,47.599557,"(47.599557, -122.295868)"
Parks,International Childrens Park,,http://www.seattle.gov/parks/park_detail.asp?ID=364,-122.323412,47.596897,"(47.596897, -122.323412)"
Parks,Lakeview Place,,http://www.seattle.gov/parks/park_detail.asp?ID=366,-122.325705,47.62939,"(47.62939, -122.325705)"
Parks,Leschi Park,100 LAKESIDE AV S,http://www.seattle.gov/parks/park_detail.asp?ID=367,-122.28655,47.60093,"(47.60093, -122.28655)"
Parks,Madrona Park,,http://www.seattle.gov/parks/park_detail.asp?ID=370,-122.28268,47.609298,"(47.609298, -122.28268)"
Parks,Mccurdy (Horace) Park,E HAMLIN ST / E PARK DR E,http://www.seattle.gov/parks/park_detail.asp?ID=372,-122.300955,47.644951,"(47.644951, -122.300955)"
Parks,West Montlake Park,,http://www.seattle.gov/parks/park_detail.asp?ID=375,-122.30982,47.646219,"(47.646219, -122.30982)"
Parks,Roanoke Park,,http://www.seattle.gov/parks/park_detail.asp?ID=379,-122.320185,47.643723,"(47.643723, -122.320185)"
Parks,Spring Street Mini Park,,http://www.seattle.gov/parks/park_detail.asp?ID=381,-122.3124,47.611801,"(47.611801, -122.3124)"
Parks,Tashkent Park,,http://www.seattle.gov/parks/park_detail.asp?ID=384,-122.323444,47.62379,"(47.62379, -122.323444)"
Parks,Thomas Street Mini Park,,http://www.seattle.gov/parks/park_detail.asp?ID=386,-122.326216,47.621036,"(47.621036, -122.326216)"
Parks,Plum Tree Park,,http://www.seattle.gov/parks/park_detail.asp?ID=387,-122.299142,47.617053,"(47.617053, -122.299142)"
Parks,Ravenna Park,,http://www.seattle.gov/parks/park_detail.asp?ID=391,-122.305705,47.671402,"(47.671402, -122.305705)"
Parks,Foster Island (Wash. Park),,http://www.seattle.gov/parks/park_detail.asp?ID=393,-122.294833,47.636478,"(47.636478, -122.294833)"
Parks,Dr. Blanche Lavizzo Park,,http://www.seattle.gov/parks/park_detail.asp?ID=395,-122.304179,47.600278,"(47.600278, -122.304179)"
Parks,Judkins Park And Playfield,,http://www.seattle.gov/parks/park_detail.asp?ID=397,-122.303953,47.592425,"(47.592425, -122.303953)"
Parks,Volunteer Park,,http://www.seattle.gov/parks/park_detail.asp?ID=399,-122.315568,47.630378,"(47.630378, -122.315568)"
Parks,Bradner Gardens Park,,http://www.seattle.gov/parks/park_detail.asp?ID=401,-122.295426,47.587419,"(47.587419, -122.295426)"
Parks,Dearborn Park,,http://www.seattle.gov/parks/park_detail.asp?ID=408,-122.296225,47.553389,"(47.553389, -122.296225)"
Parks,Genesee Park And Playfield,,http://www.seattle.gov/parks/park_detail.asp?ID=409,-122.278746,47.564857,"(47.564857, -122.278746)"
Parks,Thornton Creek Park #1,1302 10TH AVE NE,http://www.seattle.gov/parks/park_detail.asp?ID=416,-122.307629,47.707034,"(47.707034, -122.307629)"
Parks,Mount Baker Park,,http://www.seattle.gov/parks/park_detail.asp?ID=419,-122.288481,47.580957,"(47.580957, -122.288481)"
Parks,Chinook Beach Park,RAINIER AVE S / S ITHACA ST,http://www.seattle.gov/parks/park_detail.asp?ID=421,-122.258376,47.520135,"(47.520135, -122.258376)"
Parks,Seward Park,,http://www.seattle.gov/parks/park_detail.asp?ID=428,-122.252449,47.5543,"(47.5543, -122.252449)"
Parks,Martha Washington Park,,http://www.seattle.gov/parks/park_detail.asp?ID=432,-122.260054,47.542398,"(47.542398, -122.260054)"
Parks,Dr. Jose Rizal Park,,http://www.seattle.gov/parks/park_detail.asp?ID=433,-122.318451,47.592681,"(47.592681, -122.318451)"
Parks,Beer Sheva Park,,http://www.seattle.gov/parks/park_detail.asp?ID=440,-122.263223,47.524193,"(47.524193, -122.263223)"
Parks,Alki Beach Park,,http://www.seattle.gov/parks/park_detail.asp?ID=445,-122.400127,47.58671,"(47.58671, -122.400127)"
Parks,Belvedere Park,,http://www.seattle.gov/parks/park_detail.asp?ID=447,-122.376895,47.580672,"(47.580672, -122.376895)"
Parks,Duwamish Head Greenbelt,,http://www.seattle.gov/parks/park_detail.asp?ID=451,-122.378909,47.584928,"(47.584928, -122.378909)"
Parks,Seacrest Park,,http://www.seattle.gov/parks/park_detail.asp?ID=455,-122.378676,47.588951,"(47.588951, -122.378676)"
Parks,Kilbourne Park,9131 CALIFORNIA AVE SW,http://www.seattle.gov/parks/park_detail.asp?ID=459,-122.388277,47.52133,"(47.52133, -122.388277)"
Parks,Puget Park,4800 16TH AVE SW,http://www.seattle.gov/parks/park_detail.asp?ID=462,-122.356922,47.558473,"(47.558473, -122.356922)"
Parks,Riverview Playfield,,http://www.seattle.gov/parks/park_detail.asp?ID=463,-122.348855,47.539329,"(47.539329, -122.348855)"
Parks,Schmitz Preserve Park,,http://www.seattle.gov/parks/park_detail.asp?ID=465,-122.400425,47.574375,"(47.574375, -122.400425)"
Parks,Seola Park,,http://www.seattle.gov/parks/park_detail.asp?ID=466,-122.374332,47.500389,"(47.500389, -122.374332)"
Parks,Me-Kwa-Mooks Park,,http://www.seattle.gov/parks/park_detail.asp?ID=473,-122.404005,47.563166,"(47.563166, -122.404005)"
Parks,Belvoir Place,3659  42ND AV NE,http://www.seattle.gov/parks/park_detail.asp?ID=475,-122.283215,47.655124,"(47.655124, -122.283215)"
Parks,Arroyos Natural Area,,http://www.seattle.gov/parks/park_detail.asp?ID=485,-122.387822,47.505679,"(47.505679, -122.387822)"
Parks,Ravenna-Eckstein Park,,http://www.seattle.gov/parks/park_detail.asp?ID=488,-122.30493,47.67688,"(47.67688, -122.30493)"
Parks,Cheasty Greenspace,,http://www.seattle.gov/parks/park_detail.asp?ID=489,-122.301472,47.578767,"(47.578767, -122.301472)"
Parks,Dahl (Waldo J.) Playfield,,http://www.seattle.gov/parks/park_detail.asp?ID=499,-122.299308,47.685266,"(47.685266, -122.299308)"
Parks,Dakota Place Park,4304 SW DAKOTA ST,http://www.seattle.gov/parks/park_detail.asp?ID=575,-122.387164,47.566844,"(47.566844, -122.387164)"
Parks,Sturgus Park,,http://www.seattle.gov/parks/park_detail.asp?ID=592,-122.314377,47.594089,"(47.594089, -122.314377)"
Parks,Duwamish Waterway Park,,http://www.seattle.gov/parks/park_detail.asp?ID=705,-122.319694,47.531156,"(47.531156, -122.319694)"
Parks,Arapahoe Triangle,3431 ARAPAHOE PLACE W,http://www.seattle.gov/parks/park_detail.asp?ID=1556,-122.409139,47.65129,"(47.65129, -122.409139)"
Parks,Maple School Ravine,,http://www.seattle.gov/parks/park_detail.asp?ID=1630,-122.308342,47.551071,"(47.551071, -122.308342)"
Parks,Baker Park On Crown Hill,,http://www.seattle.gov/parks/park_detail.asp?ID=2840,-122.374794,47.690119,"(47.690119, -122.374794)"
Parks,Andover Place,,http://www.seattle.gov/parks/park_detail.asp?ID=2927,-122.409993,47.568517,"(47.568517, -122.409993)"
Parks,Charles Richey Sr Viewpoint,,http://www.seattle.gov/parks/park_detail.asp?ID=80,-122.417387,47.573457,"(47.573457, -122.417387)"
Parks,Jefferson Park,,http://www.seattle.gov/parks/park_detail.asp?ID=114,-122.311441,47.568067,"(47.568067, -122.311441)"
Parks,Pelly Place Natural Area,,http://www.seattle.gov/parks/park_detail.asp?ID=237,-122.39309,47.541492,"(47.541492, -122.39309)"
Parks,Carkeek Park,,http://www.seattle.gov/parks/park_detail.asp?ID=240,-122.37241,47.710823,"(47.710823, -122.37241)"
Parks,Albert Davis Park,,http://www.seattle.gov/parks/park_detail.asp?ID=244,-122.298462,47.72021,"(47.72021, -122.298462)"
Parks,Greenwood Triangle,,http://www.seattle.gov/parks/park_detail.asp?ID=245,-122.361032,47.668902,"(47.668902, -122.361032)"
Parks,North Beach Park,24TH AVE NW/NW 90TH ST,http://www.seattle.gov/parks/park_detail.asp?ID=247,-122.390258,47.69471,"(47.69471, -122.390258)"
Parks,Sunset Hill Park,,http://www.seattle.gov/parks/park_detail.asp?ID=252,-122.400938,47.684034,"(47.684034, -122.400938)"
Parks,Bergen Place,,http://www.seattle.gov/parks/park_detail.asp?ID=253,-122.384495,47.66833,"(47.66833, -122.384495)"
Parks,Kubota Gardens Natural Area,,http://www.seattle.gov/parks/park_detail.asp?ID=262,-122.267366,47.511157,"(47.511157, -122.267366)"
Parks,Longfellow Creek Greenspace,,http://www.seattle.gov/parks/park_detail.asp?ID=267,-122.363435,47.530167,"(47.530167, -122.363435)"
Parks,Me-Kwa-Mooks Natural Area,,http://www.seattle.gov/parks/park_detail.asp?ID=268,-122.403424,47.563782,"(47.563782, -122.403424)"
Parks,Pipers Creek Natural Area,600 NW 117TH ST,http://www.seattle.gov/parks/park_detail.asp?ID=275,-122.364699,47.714678,"(47.714678, -122.364699)"
Parks,Mock Creek Ravine,,http://www.seattle.gov/parks/park_detail.asp?ID=277,-122.28962,47.699037,"(47.699037, -122.28962)"
Parks,Northeast Queen Anne Greenbelt,,http://www.seattle.gov/parks/park_detail.asp?ID=279,-122.345011,47.635866,"(47.635866, -122.345011)"
Parks,West Duwamish Greenbelt,,http://www.seattle.gov/parks/park_detail.asp?ID=282,-122.356966,47.563271,"(47.563271, -122.356966)"
Parks,Licton Springs Park,,http://www.seattle.gov/parks/park_detail.asp?ID=286,-122.338736,47.698541,"(47.698541, -122.338736)"
Parks,Sturtevant Ravine,,http://www.seattle.gov/parks/park_detail.asp?ID=290,-122.268561,47.51783,"(47.51783, -122.268561)"
Parks,Mineral Springs Park,1500 N 105TH STREET,http://www.seattle.gov/parks/park_detail.asp?ID=291,-122.336528,47.705755,"(47.705755, -122.336528)"
Parks,Gas Works Park,,http://www.seattle.gov/parks/park_detail.asp?ID=293,-122.334908,47.645638,"(47.645638, -122.334908)"
Parks,Cormorant Cove,,http://www.seattle.gov/parks/park_detail.asp?ID=295,-122.412089,47.570984,"(47.570984, -122.412089)"
Parks,Little Brook Park,,http://www.seattle.gov/parks/park_detail.asp?ID=297,-122.294567,47.731387,"(47.731387, -122.294567)"
Parks,Orchard Street Ravine,39TH SW / SW ORCHARD ST,http://www.seattle.gov/parks/park_detail.asp?ID=300,-122.380151,47.538315,"(47.538315, -122.380151)"
Parks,Llandover Woods Greenspace,,http://www.seattle.gov/parks/park_detail.asp?ID=301,-122.364545,47.733024,"(47.733024, -122.364545)"
Parks,Carleton Center,,http://www.seattle.gov/parks/park_detail.asp?ID=305,-122.406385,47.639414,"(47.639414, -122.406385)"
Parks,City Hall Park,,http://www.seattle.gov/parks/park_detail.asp?ID=306,-122.329875,47.602022,"(47.602022, -122.329875)"
Parks,Commodore Park,3330 W COMMODORE WAY,http://www.seattle.gov/parks/park_detail.asp?ID=308,-122.40014,47.66538,"(47.66538, -122.40014)"
Parks,Denny Park,,http://www.seattle.gov/parks/park_detail.asp?ID=309,-122.341049,47.61913,"(47.61913, -122.341049)"
Parks,Myrtle Edwards Park,,http://www.seattle.gov/parks/park_detail.asp?ID=311,-122.36087,47.618767,"(47.618767, -122.36087)"
Parks,Freeway Park,,http://www.seattle.gov/parks/park_detail.asp?ID=312,-122.330904,47.609472,"(47.609472, -122.330904)"
Parks,Kinnear Park,,http://www.seattle.gov/parks/park_detail.asp?ID=314,-122.367205,47.627316,"(47.627316, -122.367205)"
Parks,Kinnear Place,,http://www.seattle.gov/parks/park_detail.asp?ID=315,-122.356978,47.626151,"(47.626151, -122.356978)"
Parks,Lawton Park,,http://www.seattle.gov/parks/park_detail.asp?ID=316,-122.391157,47.655064,"(47.655064, -122.391157)"
Parks,Magnolia Park,,http://www.seattle.gov/parks/park_detail.asp?ID=317,-122.397348,47.633427,"(47.633427, -122.397348)"
Parks,Marshall Park,,http://www.seattle.gov/parks/park_detail.asp?ID=320,-122.366805,47.629436,"(47.629436, -122.366805)"
Parks,Mayfair Park,,http://www.seattle.gov/parks/park_detail.asp?ID=321,-122.353356,47.643241,"(47.643241, -122.353356)"
Parks,B.F. Day Playground,4020 Fremont Ave N,http://www.seattle.gov/parks/park_detail.asp?ID=241,-122.349221502422,47.6560301481679,"(47.6560301481679, -122.349221502422)"
Parks,Gilman Playground,923 NW 54th St,http://www.seattle.gov/parks/park_detail.asp?ID=242,-122.369684036369,47.66729167168,"(47.66729167168, -122.369684036369)"
Parks,Ross Playground,4320 4th Ave NW,http://www.seattle.gov/parks/park_detail.asp?ID=248,-122.361346842948,47.6597179137182,"(47.6597179137182, -122.361346842948)"
Parks,Sandel Playground,9053 1st Ave NW,http://www.seattle.gov/parks/park_detail.asp?ID=250,-122.358700739135,47.6951336977073,"(47.6951336977073, -122.358700739135)"
Parks,Soundview Playfield,1590 NW 90th St,http://www.seattle.gov/parks/park_detail.asp?ID=251,-122.378878432525,47.6954157512333,"(47.6954157512333, -122.378878432525)"
Parks,Froula Playground,7200 12th Ave NE,http://www.seattle.gov/parks/park_detail.asp?ID=287,-122.313978443867,47.6805383223391,"(47.6805383223391, -122.313978443867)"
Parks,Bitter Lake Playfield,13035 Linden Ave N,http://www.seattle.gov/parks/park_detail.asp?ID=288,-122.349314334665,47.724209093647,"(47.724209093647, -122.349314334665)"
Parks,Loyal Heights Playfield,2101 NW 77th St,http://www.seattle.gov/parks/park_detail.asp?ID=289,-122.38324017016,47.6841059362952,"(47.6841059362952, -122.38324017016)"
Parks,Bayview Playground,2614 24th Ave W,http://www.seattle.gov/parks/park_detail.asp?ID=303,-122.38678612823,47.6438017035719,"(47.6438017035719, -122.38678612823)"
Parks,East Magnolia Playfield,,http://www.seattle.gov/parks/park_detail.asp?ID=318,-122.391059670129,47.6405844763879,"(47.6405844763879, -122.391059670129)"
Parks,Magnolia Playfield,2518 34th Ave W,http://www.seattle.gov/parks/park_detail.asp?ID=319,-122.399472233563,47.6437458208129,"(47.6437458208129, -122.399472233563)"
Parks,East Queen Anne Playground,1912 Warren Ave N,http://www.seattle.gov/parks/park_detail.asp?ID=329,-122.353785822709,47.6361389994322,"(47.6361389994322, -122.353785822709)"
Parks,West Queen Anne Playfield,150 W Blaine St,http://www.seattle.gov/parks/park_detail.asp?ID=330,-122.359503883522,47.6355140819519,"(47.6355140819519, -122.359503883522)"
Parks,Laurelhurst Playfield,4544 NE 41st St,http://www.seattle.gov/parks/park_detail.asp?ID=340,-122.278019181289,47.6598895174452,"(47.6598895174452, -122.278019181289)"
Parks,Cascade Playground,333 Pontius Ave N,http://www.seattle.gov/parks/park_detail.asp?ID=350,-122.332354809849,47.6214052249468,"(47.6214052249468, -122.332354809849)"
Parks,Meadowbrook Playfield,10533 35th Ave NE,http://www.seattle.gov/parks/park_detail.asp?ID=352,-122.293492857914,47.7057711129745,"(47.7057711129745, -122.293492857914)"
Parks,Garfield Playfield,23rd Ave and E Cherry St,http://www.seattle.gov/parks/park_detail.asp?ID=353,-122.301411867027,47.6070978006384,"(47.6070978006384, -122.301411867027)"
Parks,Madrona Playground,3211 E Spring St,http://www.seattle.gov/parks/park_detail.asp?ID=371,-122.289885186905,47.6110216491653,"(47.6110216491653, -122.289885186905)"
Parks,Miller Playfield,400 19th Ave E,http://www.seattle.gov/parks/park_detail.asp?ID=373,-122.306261412155,47.6214333231101,"(47.6214333231101, -122.306261412155)"
Parks,Montlake Playfield,1618 E Calhoun St,http://www.seattle.gov/parks/park_detail.asp?ID=376,-122.310081020631,47.6424066868121,"(47.6424066868121, -122.310081020631)"
Parks,Peppi'S Playground,3233 E Spruce St,http://www.seattle.gov/parks/park_detail.asp?ID=378,-122.29060161753,47.6027234663951,"(47.6027234663951, -122.29060161753)"
Parks,Rogers Playground,Eastlake Ave E and E Roanoke St,http://www.seattle.gov/parks/park_detail.asp?ID=380,-122.325256868431,47.6426009492446,"(47.6426009492446, -122.325256868431)"
Parks,Pinehurst Playground,12029 14th Ave. NE,http://www.seattle.gov/parks/park_detail.asp?ID=382,-122.314628211158,47.7164362240396,"(47.7164362240396, -122.314628211158)"
Parks,Sacajawea Playground,1726 NE 94th St,http://www.seattle.gov/parks/park_detail.asp?ID=394,-122.308131595437,47.6971318737822,"(47.6971318737822, -122.308131595437)"
Parks,Beacon Hill Playground,1902 13th Ave S,http://www.seattle.gov/parks/park_detail.asp?ID=400,-122.315324628371,47.5862263145601,"(47.5862263145601, -122.315324628371)"
Parks,Brighton Playfield,6000 39th Ave S,http://www.seattle.gov/parks/park_detail.asp?ID=402,-122.282099579571,47.548387353425,"(47.548387353425, -122.282099579571)"
Parks,Othello Playground,4351 S Othello St,http://www.seattle.gov/parks/park_detail.asp?ID=403,-122.278104890608,47.5362144800422,"(47.5362144800422, -122.278104890608)"
Parks,Cleveland Playfield,S Lucile St and 13th Ave S,http://www.seattle.gov/parks/park_detail.asp?ID=404,-122.315542025326,47.5520115483017,"(47.5520115483017, -122.315542025326)"
Parks,Colman Playground,1740 23rd Ave S,http://www.seattle.gov/parks/park_detail.asp?ID=406,-122.301957035525,47.587625380775,"(47.587625380775, -122.301957035525)"
Parks,Georgetown Playfield,750 S Homer St,http://www.seattle.gov/parks/park_detail.asp?ID=410,-122.321395622454,47.5516197319685,"(47.5516197319685, -122.321395622454)"
Parks,Lakewood Plaground,5013 S Angeline St,http://www.seattle.gov/parks/park_detail.asp?ID=414,-122.270059558155,47.5588308046035,"(47.5588308046035, -122.270059558155)"
Parks,Maple Wood Playfield,4801 Corson Ave S,http://www.seattle.gov/parks/park_detail.asp?ID=418,-122.31884514896,47.5600408806488,"(47.5600408806488, -122.31884514896)"
Parks,Rainer Beach Playfield,8802 Rainier Ave S,http://www.seattle.gov/parks/park_detail.asp?ID=422,-122.273135760829,47.5250409543704,"(47.5250409543704, -122.273135760829)"
Parks,Rainier Playfield,3700 S Alaska St.,http://www.seattle.gov/parks/park_detail.asp?ID=423,-122.286200070963,47.5618173265164,"(47.5618173265164, -122.286200070963)"
Parks,Van Asselt Playground,7200 Beacon Ave S,http://www.seattle.gov/parks/park_detail.asp?ID=431,-122.294067595442,47.5394460989017,"(47.5394460989017, -122.294067595442)"
Parks,University Playground,9th Ave NE and NE 50th St.,http://www.seattle.gov/parks/park_detail.asp?ID=435,-122.319312327795,47.6644474051006,"(47.6644474051006, -122.319312327795)"
Parks,Benefit Playground,9320 38th Ave S,http://www.seattle.gov/parks/park_detail.asp?ID=436,-122.284294216374,47.5189982440007,"(47.5189982440007, -122.284294216374)"
Parks,Victory Heights Playground,1737 NE 106th St,http://www.seattle.gov/parks/park_detail.asp?ID=438,-122.307833800029,47.7056715231328,"(47.7056715231328, -122.307833800029)"
Parks,Hutchinson Playground,S Norfolk St and 59th Ave S,http://www.seattle.gov/parks/park_detail.asp?ID=439,-122.26006214919,47.5143120790222,"(47.5143120790222, -122.26006214919)"
Parks,Alki Playground,5817 SW Lander St,http://www.seattle.gov/parks/park_detail.asp?ID=446,-122.40731233767,47.5784972617799,"(47.5784972617799, -122.40731233767)"
Parks,Wallingford Playfield,4219 Wallingford Ave N,http://www.seattle.gov/parks/park_detail.asp?ID=449,-122.33744372477,47.6585444344469,"(47.6585444344469, -122.33744372477)"
Parks,Delridge Playfield,4458 Delridge Way SW,http://www.seattle.gov/parks/park_detail.asp?ID=450,-122.364370690361,47.5628424487087,"(47.5628424487087, -122.364370690361)"
Parks,Fairmount Playground,5400 Fauntleroy Way SW,http://www.seattle.gov/parks/park_detail.asp?ID=452,-122.3805488504,47.5540408122029,"(47.5540408122029, -122.3805488504)"
Parks,Hamilton Viewpoint,1531 California Wy SW,http://www.seattle.gov/parks/park_detail.asp?ID=454,-122.389069703111,47.5907475150499,"(47.5907475150499, -122.389069703111)"
Parks,Hiawatha Playfield,2700 California Ave SW,http://www.seattle.gov/parks/park_detail.asp?ID=456,-122.384964699838,47.5782724270145,"(47.5782724270145, -122.384964699838)"
Parks,Highland Park Playground,1100 SW Cloverdale St,http://www.seattle.gov/parks/park_detail.asp?ID=457,-122.349034022359,47.527379719227,"(47.527379719227, -122.349034022359)"
Parks,E.C. Hughes Playground,2805 SW Holden St,http://www.seattle.gov/parks/park_detail.asp?ID=458,-122.369545228851,47.5328049082455,"(47.5328049082455, -122.369545228851)"
Parks,South Park Playfield,738 S Sullivan St,http://www.seattle.gov/parks/park_detail.asp?ID=467,-122.324158773464,47.5280159781691,"(47.5280159781691, -122.324158773464)"
Parks,West Seattle Stadium,4432 35th Ave SW,http://www.seattle.gov/parks/park_detail.asp?ID=472,-122.374348206809,47.5628255450167,"(47.5628255450167, -122.374348206809)"
Parks,Bryant Neighborhood Playground,4102 NE 65th St,http://www.seattle.gov/parks/park_detail.asp?ID=482,-122.283644144168,47.6752992033738,"(47.6752992033738, -122.283644144168)"
Parks,Burke-Gilman Playground,5201 Sand Point Way NE,http://www.seattle.gov/parks/park_detail.asp?ID=496,-122.282623001591,47.6666338602899,"(47.6666338602899, -122.282623001591)"
Parks,Ballard Playground,2644 NW 60th St,http://www.seattle.gov/parks/park_detail.asp?ID=497,-122.391549848962,47.6727858650181,"(47.6727858650181, -122.391549848962)"
Parks,Meridian Playground,4649 Sunnyside Ave N,http://www.seattle.gov/parks/park_detail.asp?ID=1104,-122.332556754953,47.6641586884286,"(47.6641586884286, -122.332556754953)"
Parks,Bar-S Playground,6425 SW Admiral Way,http://www.seattle.gov/parks/park_detail.asp?ID=3703,-122.416054352165,47.5751951223366,"(47.5751951223366, -122.416054352165)"
Parks,Maple Leaf Playground,1020 NE 82nd St,http://www.seattle.gov/parks/park_detail.asp?ID=3881,-122.315612904851,47.6890145029702,"(47.6890145029702, -122.315612904851)"
Parks,Interbay Athletic Complex,3027 17th Ave W,http://www.seattle.gov/parks/park_detail.asp?ID=3887,-122.379191275215,47.6472393920114,"(47.6472393920114, -122.379191275215)"
Parks,T.T. Minor Playground,17th Ave E and E Union St,http://www.seattle.gov/parks/park_detail.asp?ID=3913,-122.310543098826,47.6131107170061,"(47.6131107170061, -122.310543098826)"
Parks,Emma Schmitz Memorial Overlook,4503 Beach Dr. SW,http://www.seattle.gov/parks/park_detail.asp?ID=3920,-122.40712042032,47.5628975696743,"(47.5628975696743, -122.40712042032)"
Parks,York Playground,3327 34th Ave S,http://www.seattle.gov/parks/park_detail.asp?ID=3926,-122.29071342709,47.5726945845554,"(47.5726945845554, -122.29071342709)"
Parks,High Point Playfield,6920 34th Ave SW,http://www.seattle.gov/parks/park_detail.asp?ID=3941,-122.373414932477,47.5401697408767,"(47.5401697408767, -122.373414932477)"
Parks,Queen Anne Bowl Playfield,2806 3rd Ave W,http://www.seattle.gov/parks/park_detail.asp?ID=3984,-122.359710617651,47.6455992268977,"(47.6455992268977, -122.359710617651)"
Parks,Lake City Playground,2750 NE 125th St,http://www.seattle.gov/parks/park_detail.asp?ID=4002,-122.299373591493,47.7179550153166,"(47.7179550153166, -122.299373591493)"
Parks,Bagley Viewpoint,2548 Delmar Dr E,http://www.seattle.gov/parks/park_detail.asp?ID=4006,-122.318346887431,47.6430148390685,"(47.6430148390685, -122.318346887431)"
Parks,Nathan Hale Playfield,10750 30th Ave NE,http://www.seattle.gov/parks/park_detail.asp?ID=4023,-122.292028169283,47.7077147290923,"(47.7077147290923, -122.292028169283)"
Parks,Denny Playfield,,http://www.seattle.gov/parks/park_detail.asp?ID=4200,-122.339143311923,47.61913845141,"(47.61913845141, -122.339143311923)"
Parks,Puget Ridge Playground,21st Ave SW and Croft Pl SW,http://www.seattle.gov/parks/park_detail.asp?ID=4201,-122.359946978632,47.5473683327228,"(47.5473683327228, -122.359946978632)"
Parks,East Portal Viewpoint,1400 Lake Washington Blvd S,http://www.seattle.gov/parks/park_detail.asp?ID=4241,-122.287892664034,47.5902217990605,"(47.5902217990605, -122.287892664034)"
Parks,Judge Charles M. Stokes Overlook,S Judkins St and 20th Ave S,http://www.seattle.gov/parks/park_detail.asp?ID=4244,-122.306962470517,47.5916324990486,"(47.5916324990486, -122.306962470517)"
Parks,Benvenuto Viewpoint,1401 23rd Ave S,http://www.seattle.gov/parks/park_detail.asp?ID=4245,-122.303028784202,47.589840775465,"(47.589840775465, -122.303028784202)"
Parks,Yesler Playfield,917 E Yesler Way,http://www.seattle.gov/parks/park_detail.asp?ID=4263,-122.320082556586,47.601261682324,"(47.601261682324, -122.320082556586)"
Parks,Mt Baker Ridge Viewpoint,1403 31st Ave S,http://www.seattle.gov/parks/park_detail.asp?ID=4427,-122.292616071577,47.589983069111,"(47.589983069111, -122.292616071577)"
Parks,Kiwanis Ravine Overlook,34th Ave W and W McCord Pl,http://www.seattle.gov/parks/park_detail.asp?ID=4429,-122.403236804742,47.6602505167596,"(47.6602505167596, -122.403236804742)"
Parks,Ursula Judkins Viewpoint,W Galer St west of the Magnolia Bridge,http://www.seattle.gov/parks/park_detail.asp?ID=4451,-122.390232055055,47.6320488302181,"(47.6320488302181, -122.390232055055)"
Parks,Rotary Viewpoint,35th Ave SW and SW Alaska St,http://www.seattle.gov/parks/park_detail.asp?ID=4465,-122.375859155464,47.5602220495052,"(47.5602220495052, -122.375859155464)"
Picnic Sites,Madrona Park,853 Lake Washington Blvd.,http://www.seattle.gov/parks/picnic_detail.asp?ID=370,-122.282679,47.609299,"(47.609299, -122.282679)"
Picnic Sites,Judkins Park And Playfield,2150 S Norman St.,http://www.seattle.gov/parks/picnic_detail.asp?ID=397,-122.303951,47.592425,"(47.592425, -122.303951)"
Picnic Sites,Dr. Jose Rizal Park,1008 12th Ave. S,http://www.seattle.gov/parks/picnic_detail.asp?ID=433,-122.318452,47.592681,"(47.592681, -122.318452)"
Picnic Sites,Golden Garden Park,8498 Seaview Pl. NW,http://www.seattle.gov/parks/picnic_detail.asp?ID=243,-122.40327,47.692105,"(47.692105, -122.40327)"
Picnic Sites,Matthews Beach Park,9300 51st Ave. NE,http://www.seattle.gov/parks/picnic_detail.asp?ID=347,-122.272703,47.695923,"(47.695923, -122.272703)"
Picnic Sites,Me-Kwa-Mooks Park,4503 Beach Dr. SW,http://www.seattle.gov/parks/picnic_detail.asp?ID=473,-122.404006,47.563167,"(47.563167, -122.404006)"
Picnic Sites,Meridian Playground,4649 Sunnyside Ave. N,http://www.seattle.gov/parks/picnic_detail.asp?ID=1104,-122.332557,47.664157,"(47.664157, -122.332557)"
Picnic Sites,Northacres Park,12718 1st Ave. NE,http://www.seattle.gov/parks/picnic_detail.asp?ID=361,-122.326992,47.721559,"(47.721559, -122.326992)"
Picnic Sites,Othello Playground,4351 S Othello St.,http://www.seattle.gov/parks/picnic_detail.asp?ID=403,-122.278106,47.536214,"(47.536214, -122.278106)"
Picnic Sites,Pratt Park,1800 S Main St.,http://www.seattle.gov/parks/picnic_detail.asp?ID=390,-122.307464,47.600704,"(47.600704, -122.307464)"
Picnic Sites,Ravenna Park,5520 Ravenna Ave. NE,http://www.seattle.gov/parks/picnic_detail.asp?ID=391,-122.305705,47.671404,"(47.671404, -122.305705)"
Picnic Sites,Roxhill Park,2850 SW Roxbury St.,http://www.seattle.gov/parks/picnic_detail.asp?ID=464,-122.368881,47.519496,"(47.519496, -122.368881)"
Picnic Sites,Seward Park,5902 Lake Washington Blvd. S,http://www.seattle.gov/parks/picnic_detail.asp?ID=428,-122.25245,47.5543,"(47.5543, -122.25245)"
Picnic Sites,Warren G. Magnuson Park,6550 Sand Point Way NE,http://www.seattle.gov/parks/picnic_detail.asp?ID=398,-122.255084,47.680304,"(47.680304, -122.255084)"
Picnic Sites,Westcrest Park,9000 8th Ave. SW,http://www.seattle.gov/parks/picnic_detail.asp?ID=468,-122.339892,47.524763,"(47.524763, -122.339892)"
Picnic Sites,Woodland Park,Aurora Ave. N and N 59th St.,http://www.seattle.gov/parks/picnic_detail.asp?ID=292,-122.344218,47.668906,"(47.668906, -122.344218)"
Picnic Sites,Alki Beack Park,1702 Alki Ave. SW,http://www.seattle.gov/parks/picnic_detail.asp?ID=445,-122.400127,47.586709,"(47.586709, -122.400127)"
Picnic Sites,Beer Sheva Park,8650 55th Ave. S,http://www.seattle.gov/parks/picnic_detail.asp?ID=440,-122.263223,47.524191,"(47.524191, -122.263223)"
Picnic Sites,Lincoln Park,8011 Fauntleroy Wy SW,http://www.seattle.gov/parks/picnic_detail.asp?ID=460,-122.396012,47.531176,"(47.531176, -122.396012)"
Picnic Sites,Ferdinand St Boat Launch,S Ferdand St & Lake Wash. Blvd S,http://www.seattle.gov/parks/picnic_detail.asp?ID=,-122.2633,47.55828,"(47.55828, -122.2633)"
Picnic Sites,Benefit Playground,9320 38th Ave S,http://www.seattle.gov/parks/picnic_detail.asp?ID=436,-122.284294,47.518998,"(47.518998, -122.284294)"
Picnic Sites,Magnolia Park,1461 Magnolia Blvd. W,http://www.seattle.gov/parks/picnic_detail.asp?ID=317,-122.397349,47.633426,"(47.633426, -122.397349)"
Picnic Sites,Carkeek Park,950 NW Carkeek Park Rd.,http://www.seattle.gov/parks/picnic_detail.asp?ID=240,-122.372409,47.710822,"(47.710822, -122.372409)"
Picnic Sites,Don Armeni Boat Ramp,1222 Harbor Ave. SW,http://www.seattle.gov/parks/picnic_detail.asp?ID=3917,-122.38244,47.59291,"(47.59291, -122.38244)"
Picnic Sites,Gas Works Park,2101 N Northlake Way,http://www.seattle.gov/parks/picnic_detail.asp?ID=293,-122.334906,47.645639,"(47.645639, -122.334906)"
Picnic Sites,Genesee Park And Playfield,4316 S Genesee St.,http://www.seattle.gov/parks/picnic_detail.asp?ID=409,-122.278744,47.564856,"(47.564856, -122.278744)"
Playfields,Rainier Beach Playfield,8802 Rainier Ave. S,http://www.seattle.gov/parks/park_detail.asp?ID=422,-122.273135,47.52504,"(47.52504, -122.273135)"
Playfields,Maple Wood Playfield,4801 Corson Ave. S,http://www.seattle.gov/parks/park_detail.asp?ID=418,-122.318844,47.56004,"(47.56004, -122.318844)"
Playfields,Georgetown Playfield,750 S Homer St.,http://www.seattle.gov/parks/park_detail.asp?ID=410,-122.321395,47.551619,"(47.551619, -122.321395)"
Playfields,Genesee Park And Playfield,4316 S Genesee St.,http://www.seattle.gov/parks/park_detail.asp?ID=409,-122.278744,47.564856,"(47.564856, -122.278744)"
Playfields,Colman Playground,1740 23rd Ave. S,http://www.seattle.gov/parks/park_detail.asp?ID=406,-122.301959,47.587625,"(47.587625, -122.301959)"
Playfields,Brighton Playfield,6000 39th Ave. S,http://www.seattle.gov/parks/park_detail.asp?ID=402,-122.282098,47.548389,"(47.548389, -122.282098)"
Playfields,High Point Playfield,6920 34th Ave. SW,http://www.seattle.gov/parks/park_detail.asp?ID=3941,-122.373414,47.540171,"(47.540171, -122.373414)"
Playfields,Bar-S Playground,6425 SW Admiral Way,http://www.seattle.gov/parks/park_detail.asp?ID=3703,-122.416056,47.575196,"(47.575196, -122.416056)"
Playfields,Cowen Park,5849 15th Ave. NE,http://www.seattle.gov/parks/park_detail.asp?ID=483,-122.313072,47.672596,"(47.672596, -122.313072)"
Playfields,Roxhill Park,2850 SW Roxbury St.,http://www.seattle.gov/parks/park_detail.asp?ID=464,-122.368881,47.519496,"(47.519496, -122.368881)"
Playfields,Highland Park Playground,1100 SW Cloverdale St.,http://www.seattle.gov/parks/park_detail.asp?ID=457,-122.349032,47.527379,"(47.527379, -122.349032)"
Playfields,Delridge Playfield,4458 Delridge Way SW,http://www.seattle.gov/parks/park_detail.asp?ID=450,-122.364369,47.562841,"(47.562841, -122.364369)"
Playfields,View Ridge Playfield,4408 NE 70th St.,http://www.seattle.gov/parks/park_detail.asp?ID=444,-122.281073,47.680361,"(47.680361, -122.281073)"
Playfields,Rainier Playfield,3700 S Alaska St.,http://www.seattle.gov/parks/park_detail.asp?ID=423,-122.286199,47.561819,"(47.561819, -122.286199)"
Playfields,Lakewood Playground,5013 S Angeline St.,http://www.seattle.gov/parks/park_detail.asp?ID=414,-122.270061,47.55883,"(47.55883, -122.270061)"
Playfields,Cleveland Playfield,S Lucile St. and 13th Ave. S,http://www.seattle.gov/parks/park_detail.asp?ID=404,-122.315544,47.552012,"(47.552012, -122.315544)"
Playfields,Warren G. Magnuson Park,6550 Sand Point Way NE,http://www.seattle.gov/parks/park_detail.asp?ID=398,-122.255084,47.680304,"(47.680304, -122.255084)"
Playfields,Ravenna Park,5520 Ravenna Ave. NE,http://www.seattle.gov/parks/park_detail.asp?ID=391,-122.305705,47.671404,"(47.671404, -122.305705)"
Playfields,Montlake Playfield,1618 E Calhoun St.,http://www.seattle.gov/parks/park_detail.asp?ID=376,-122.310083,47.642407,"(47.642407, -122.310083)"
Playfields,Garfield Playfield,23rd Ave. and E Cherry St.,http://www.seattle.gov/parks/park_detail.asp?ID=353,-122.301386,47.607025,"(47.607025, -122.301386)"
Playfields,West Queen Anne Playfield,1901 1st Ave. W,http://www.seattle.gov/parks/park_detail.asp?ID=330,-122.359503,47.635513,"(47.635513, -122.359503)"
Playfields,Ella Bailey Park,2601 W Smith St.,http://www.seattle.gov/parks/park_detail.asp?ID=318,-122.391058,47.640585,"(47.640585, -122.391058)"
Playfields,Denny Park,100 Dexter Ave. N,http://www.seattle.gov/parks/park_detail.asp?ID=309,-122.341049,47.61913,"(47.61913, -122.341049)"
Playfields,Loyal Heights Playfield,2101 NW 77th St.,http://www.seattle.gov/parks/park_detail.asp?ID=289,-122.383241,47.684105,"(47.684105, -122.383241)"
Playfields,Ross Playground,4320 4th Ave. NW,http://www.seattle.gov/parks/park_detail.asp?ID=248,-122.361347,47.659719,"(47.659719, -122.361347)"
Playfields,Beacon Hill Playground,1902 13th Ave. S,http://www.seattle.gov/parks/park_detail.asp?ID=400,-122.315325,47.586228,"(47.586228, -122.315325)"
Playfields,Jefferson Park,4165 16th Ave S,http://www.seattle.gov/parks/park_detail.asp?ID=114,-122.310923,47.56896,"(47.56896, -122.310923)"
Playfields,Lawton Park,3843 26th Ave. W,http://www.seattle.gov/parks/park_detail.asp?ID=316,-122.391158,47.655065,"(47.655065, -122.391158)"
Playfields,Bay View Playground,2614 24th Ave. W,http://www.seattle.gov/parks/park_detail.asp?ID=303,-122.386787,47.643801,"(47.643801, -122.386787)"
Playfields,Woodland Park,Aurora Ave. N and N 59th St.,http://www.seattle.gov/parks/park_detail.asp?ID=292,-122.344218,47.668906,"(47.668906, -122.344218)"
Playfields,Bitter Lake Playfield,13035 Linden Ave. N,http://www.seattle.gov/parks/park_detail.asp?ID=288,-122.349314,47.724209,"(47.724209, -122.349314)"
Playfields,Soundview Playfield,1590 NW 90th St.,http://www.seattle.gov/parks/park_detail.asp?ID=251,-122.378878,47.695417,"(47.695417, -122.378878)"
Playfields,Gilman Playground,923 NW 54th St.,http://www.seattle.gov/parks/park_detail.asp?ID=242,-122.369684,47.667293,"(47.667293, -122.369684)"
Playfields,B.F. Day Playground,4020 Fremont Ave. N,http://www.seattle.gov/parks/park_detail.asp?ID=241,-122.349223,47.656031,"(47.656031, -122.349223)"
Playfields,Yesler Terrace Cc,917 E Yesler Way,http://www.seattle.gov/parks/park_detail.asp?ID=4263,-122.320082,47.601263,"(47.601263, -122.320082)"
Playfields,Queen Anne Bowl Playfield,2806 3rd Ave. W,http://www.seattle.gov/parks/park_detail.asp?ID=3984,-122.359709,47.645599,"(47.645599, -122.359709)"
Playfields,Lakeridge Playground,10145 Rainier Ave. S,http://www.seattle.gov/parks/park_detail.asp?ID=3972,-122.246841,47.510319,"(47.510319, -122.246841)"
Playfields,Interbay Athletic Field,3027 17th Ave. W,http://www.seattle.gov/parks/park_detail.asp?ID=3887,-122.37919,47.647239,"(47.647239, -122.37919)"
Playfields,Maple Leaf Playground,1020 NE 82nd St.,http://www.seattle.gov/parks/park_detail.asp?ID=3881,-122.315614,47.689014,"(47.689014, -122.315614)"
Playfields,Dahl (Waldo J.) Playfield,7700 25th Ave. NE,http://www.seattle.gov/parks/park_detail.asp?ID=499,-122.299309,47.685267,"(47.685267, -122.299309)"
Playfields,Ballard Playground,2644 NW 60th St.,http://www.seattle.gov/parks/park_detail.asp?ID=497,-122.39155,47.672786,"(47.672786, -122.39155)"
Playfields,West Seattle Stadium,4600 35th Ave. SW,http://www.seattle.gov/parks/park_detail.asp?ID=472,-122.37435,47.562825,"(47.562825, -122.37435)"
Playfields,South Park Playground,738 S Sullivan St.,http://www.seattle.gov/parks/park_detail.asp?ID=467,-122.32416,47.528017,"(47.528017, -122.32416)"
Playfields,Riverview Playfield,7226 12th Ave. SW,http://www.seattle.gov/parks/park_detail.asp?ID=463,-122.348855,47.539328,"(47.539328, -122.348855)"
Playfields,Lincoln Park,8011 Fauntleroy Way SW,http://www.seattle.gov/parks/park_detail.asp?ID=460,-122.396012,47.531176,"(47.531176, -122.396012)"
Playfields,E.C. Hughes Playground,2805 SW Holden St.,http://www.seattle.gov/parks/park_detail.asp?ID=458,-122.369544,47.532805,"(47.532805, -122.369544)"
Playfields,Hiawatha Playfield,2700 California Ave. SW,http://www.seattle.gov/parks/park_detail.asp?ID=456,-122.384965,47.578273,"(47.578273, -122.384965)"
Playfields,Fairmount Playground,5400 Fauntleroy Way SW,http://www.seattle.gov/parks/park_detail.asp?ID=452,-122.38055,47.554041,"(47.554041, -122.38055)"
Playfields,Wallingford Playfield,4219 Wallingford Ave. N,http://www.seattle.gov/parks/park_detail.asp?ID=449,-122.337434,47.658554,"(47.658554, -122.337434)"
Playfields,Alki Playground,5817 SW Lander St.,http://www.seattle.gov/parks/park_detail.asp?ID=446,-122.407313,47.578497,"(47.578497, -122.407313)"
Playfields,Freed Hutchinson Playground,S Norfolk St. and 59th Ave. S,http://www.seattle.gov/parks/park_detail.asp?ID=439,-122.260061,47.514311,"(47.514311, -122.260061)"
Playfields,University Playground,9th Ave. NE and NE 50th St.,http://www.seattle.gov/parks/park_detail.asp?ID=435,-122.319311,47.664447,"(47.664447, -122.319311)"
Playfields,Van Asselt Playground,7200 Beacon Ave. S,http://www.seattle.gov/parks/park_detail.asp?ID=431,-122.294066,47.539447,"(47.539447, -122.294066)"
Playfields,Pinehurst Playground,12029 14th Ave. NE,http://www.seattle.gov/parks/park_detail.asp?ID=382,-122.314626,47.716437,"(47.716437, -122.314626)"
Playfields,Rogers Playground,Eastlake Ave. E and E Roanoke St.,http://www.seattle.gov/parks/park_detail.asp?ID=380,-122.325258,47.6426,"(47.6426, -122.325258)"
Playfields,Pendleton Miller Playfield,400 19th Ave. E,http://www.seattle.gov/parks/park_detail.asp?ID=373,-122.306261,47.621432,"(47.621432, -122.306261)"
Playfields,Madrona Playground,3211 E Spring St.,http://www.seattle.gov/parks/park_detail.asp?ID=371,-122.289887,47.611022,"(47.611022, -122.289887)"
Playfields,Northacres Park,12718 1st Ave. NE,http://www.seattle.gov/parks/park_detail.asp?ID=361,-122.326992,47.721559,"(47.721559, -122.326992)"
Playfields,Meadowbrook Playfield,10533 35th Ave. NE,http://www.seattle.gov/parks/park_detail.asp?ID=352,-122.293495,47.705784,"(47.705784, -122.293495)"
Playfields,Laurelhurst Playfield,4544 NE 41st St.,http://www.seattle.gov/parks/park_detail.asp?ID=340,-122.278019,47.659889,"(47.659889, -122.278019)"
Playfields,East Queen Anne Playground,1912 Warren Ave. N,http://www.seattle.gov/parks/park_detail.asp?ID=329,-122.353788,47.636139,"(47.636139, -122.353788)"
Playfields,West Magnolia Playfield,2518 34th Ave. W,http://www.seattle.gov/parks/park_detail.asp?ID=319,-122.399506,47.64339,"(47.64339, -122.399506)"
Playfields,Green Lake Park,7201 E Green Lake Dr. N,http://www.seattle.gov/parks/park_detail.asp?ID=307,-122.331029,47.681711,"(47.681711, -122.331029)"
Playfields,Judkins Park And Playfield,2150 S Norman St.,http://www.seattle.gov/parks/park_detail.asp?ID=397,-122.303951,47.592425,"(47.592425, -122.303951)"
Playfields,Washington Park And Arboretum,2300 Arboretum Dr. E,http://www.seattle.gov/parks/park_detail.asp?ID=393,-122.294835,47.636477,"(47.636477, -122.294835)"
Pools,Rainier Beach Pool,8825 Rainier Ave. S,http://www.seattle.gov/parks/aquatics/rainierbeachpool.htm,-122.270338,47.524766,"(47.524766, -122.270338)"
Pools,Queen Anne Pool,1901 1st Ave. W,http://www.seattle.gov/parks/aquatics/queenannepool.htm,-122.35795,47.636263,"(47.636263, -122.35795)"
Pools,Evers Pool,500 23rd Ave,http://www.seattle.gov/parks/aquatics/everspool.htm,-122.302402,47.606888,"(47.606888, -122.302402)"
Pools,Meadowbrook Pool,10515 35th Ave NE,http://www.seattle.gov/parks/aquatics/meadowbrookpool.htm,-122.291624,47.705342,"(47.705342, -122.291624)"
Pools,Evans Pool,7201 E Green Lake Dr. N,http://www.seattle.gov/parks/aquatics/Evanspool.htm,-122.328438,47.680183,"(47.680183, -122.328438)"
Pools,Colman Pool,8603 Fauntleroy Way SW,http://www.seattle.gov/parks/aquatics/colman.htm,-122.400979,47.530453,"(47.530453, -122.400979)"
Pools,Ballard Pool,1471 NW 67th St,http://www.seattle.gov/parks/aquatics/ballardp.htm,-122.376162,47.67754,"(47.67754, -122.376162)"
Pools,Helen Madison Pool,13401 Meridian N.,http://www.seattle.gov/parks/aquatics/madisonpool.htm,-122.334656,47.725801,"(47.725801, -122.334656)"
Pools,Mounger Pool,2535 32nd Ave. W,http://www.seattle.gov/parks/aquatics/mounger.htm,-122.39887,47.6429,"(47.6429, -122.39887)"
Pools,Southwest Pool,2801 SW Thistle St,http://www.seattle.gov/parks/aquatics/swpool.htm,-122.369162,47.528001,"(47.528001, -122.369162)"
Tennis Courts,Magnolia Park,1461 Magnolia Blvd. W,http://www.seattle.gov/parks/park_detail.asp?ID=317,-122.397349,47.633426,"(47.633426, -122.397349)"
Tennis Courts,Delridge Playfield,4458 Delridge Way SW,http://www.seattle.gov/parks/park_detail.asp?ID=450,-122.364369,47.562841,"(47.562841, -122.364369)"
Tennis Courts,Wallingford Playfield,4219 Wallingford Ave. N,http://www.seattle.gov/parks/park_detail.asp?ID=449,-122.337434,47.658554,"(47.658554, -122.337434)"
Tennis Courts,Alki Playground,5817 SW Lander St.,http://www.seattle.gov/parks/park_detail.asp?ID=446,-122.407313,47.578497,"(47.578497, -122.407313)"
Tennis Courts,Beer Sheva Park,8650 55th Ave. S,http://www.seattle.gov/parks/park_detail.asp?ID=440,-122.263223,47.524191,"(47.524191, -122.263223)"
Tennis Courts,Freed Hutchinson Playground,S Norfolk St. and 59th Ave. S,http://www.seattle.gov/parks/park_detail.asp?ID=439,-122.260061,47.514311,"(47.514311, -122.260061)"
Tennis Courts,Victory Heights Playground,1737 NE 106th St.,http://www.seattle.gov/parks/park_detail.asp?ID=438,-122.307836,47.705672,"(47.705672, -122.307836)"
Tennis Courts,University Playground,9th Ave. NE and NE 50th St.,http://www.seattle.gov/parks/park_detail.asp?ID=435,-122.319311,47.664447,"(47.664447, -122.319311)"
Tennis Courts,Seward Park,5902 Lake Washington Blvd. S,http://www.seattle.gov/parks/park_detail.asp?ID=428,-122.25245,47.5543,"(47.5543, -122.25245)"
Tennis Courts,Amy Yee Tennis Center,2000 MLK Jr. Way S,http://www.seattle.gov/parks/park_detail.asp?ID=426,-122.29742,47.584876,"(47.584876, -122.29742)"
Tennis Courts,Rainier Playfield,3700 S Alaska St.,http://www.seattle.gov/parks/park_detail.asp?ID=423,-122.286199,47.561819,"(47.561819, -122.286199)"
Tennis Courts,Rainier Beach Playfield,8802 Rainier Ave. S,http://www.seattle.gov/parks/park_detail.asp?ID=422,-122.273135,47.52504,"(47.52504, -122.273135)"
Tennis Courts,Mount Baker Park,2521 Lake Park Dr. S,http://www.seattle.gov/parks/park_detail.asp?ID=419,-122.288481,47.580957,"(47.580957, -122.288481)"
Tennis Courts,Georgetown Playfield,750 S Homer St.,http://www.seattle.gov/parks/park_detail.asp?ID=410,-122.321395,47.551619,"(47.551619, -122.321395)"
Tennis Courts,Cleveland Playfield,S Lucile St. and 13th Ave. S,http://www.seattle.gov/parks/park_detail.asp?ID=404,-122.315544,47.552012,"(47.552012, -122.315544)"
Tennis Courts,Brighton Playfield,6000 39th Ave. S,http://www.seattle.gov/parks/park_detail.asp?ID=402,-122.282098,47.548389,"(47.548389, -122.282098)"
Tennis Courts,Beacon Hill Playground,1902 13th Ave. S,http://www.seattle.gov/parks/park_detail.asp?ID=400,-122.315325,47.586228,"(47.586228, -122.315325)"
Tennis Courts,Volunteer Park,1247 15th Ave. E,http://www.seattle.gov/parks/park_detail.asp?ID=399,-122.315568,47.630378,"(47.630378, -122.315568)"
Tennis Courts,Warren G. Magnuson Park,6550 Sand Point Way NE,http://www.seattle.gov/parks/park_detail.asp?ID=398,-122.255084,47.680304,"(47.680304, -122.255084)"
Tennis Courts,Ravenna Park,5520 Ravenna Ave. NE,http://www.seattle.gov/parks/park_detail.asp?ID=391,-122.305705,47.671404,"(47.671404, -122.305705)"
Tennis Courts,Montlake Playfield,1618 E Calhoun St.,http://www.seattle.gov/parks/park_detail.asp?ID=376,-122.310083,47.642407,"(47.642407, -122.310083)"
Tennis Courts,Pendleton Miller Playfield,400 19th Ave. E,http://www.seattle.gov/parks/park_detail.asp?ID=373,-122.306261,47.621432,"(47.621432, -122.306261)"
Tennis Courts,Madrona Playground,3211 E Spring St.,http://www.seattle.gov/parks/park_detail.asp?ID=371,-122.289887,47.611022,"(47.611022, -122.289887)"
Tennis Courts,Madison Park,E. Madison St. and E. Howe St.,http://www.seattle.gov/parks/park_detail.asp?ID=369,-122.276602,47.635779,"(47.635779, -122.276602)"
Tennis Courts,Leschi Park,100 Lakeside Ave. S,http://www.seattle.gov/parks/park_detail.asp?ID=367,-122.286548,47.600931,"(47.600931, -122.286548)"
Tennis Courts,Garfield Playfield,23rd Ave. and E Cherry St.,http://www.seattle.gov/parks/park_detail.asp?ID=353,-122.301386,47.607025,"(47.607025, -122.301386)"
Tennis Courts,Meadowbrook Playfield,10533 35th Ave. NE,http://www.seattle.gov/parks/park_detail.asp?ID=352,-122.293495,47.705784,"(47.705784, -122.293495)"
Tennis Courts,Laurelhurst Playfield,4544 NE 41st St.,http://www.seattle.gov/parks/park_detail.asp?ID=340,-122.278019,47.659889,"(47.659889, -122.278019)"
Tennis Courts,David Rodgers Park,2800 1st Ave. W,http://www.seattle.gov/parks/park_detail.asp?ID=331,-122.359484,47.644135,"(47.644135, -122.359484)"
Tennis Courts,West Magnolia Playfield,2518 34th Ave. W,http://www.seattle.gov/parks/park_detail.asp?ID=319,-122.399506,47.64339,"(47.64339, -122.399506)"
Tennis Courts,Kinnear Park,899 W Olympic Pl.,http://www.seattle.gov/parks/park_detail.asp?ID=314,-122.367207,47.627317,"(47.627317, -122.367207)"
Tennis Courts,Discovery Park,3801 W Government Way,http://www.seattle.gov/parks/park_detail.asp?ID=310,-122.415282,47.66083,"(47.66083, -122.415282)"
Tennis Courts,Woodland Park,Aurora Ave. N and N 59th St.,http://www.seattle.gov/parks/park_detail.asp?ID=292,-122.344218,47.668906,"(47.668906, -122.344218)"
Tennis Courts,Bitter Lake Playfield,13035 Linden Ave. N,http://www.seattle.gov/parks/park_detail.asp?ID=288,-122.349314,47.724209,"(47.724209, -122.349314)"
Tennis Courts,Soundview Playfield,1590 NW 90th St.,http://www.seattle.gov/parks/park_detail.asp?ID=251,-122.378878,47.695417,"(47.695417, -122.378878)"
Tennis Courts,Gilman Playground,923 NW 54th St.,http://www.seattle.gov/parks/park_detail.asp?ID=242,-122.369684,47.667293,"(47.667293, -122.369684)"
Tennis Courts,Solstice Park,7400 Fauntleroy Way SW,http://www.seattle.gov/parks/park_detail.asp?ID=4453,-122.390347,47.536414,"(47.536414, -122.390347)"
Tennis Courts,Sam Smith Park,1400 Martin Luther King Jr. Way S,http://www.seattle.gov/parks/park_detail.asp?ID=4242,-122.297814,47.589982,"(47.589982, -122.297814)"
Tennis Courts,High Point Playfield,6920 34th Ave. SW,http://www.seattle.gov/parks/park_detail.asp?ID=3941,-122.373414,47.540171,"(47.540171, -122.373414)"
Tennis Courts,Ravenna-Eckstein Park,6535 Ravenna Ave. NE,http://www.seattle.gov/parks/park_detail.asp?ID=488,-122.304931,47.676879,"(47.676879, -122.304931)"
Tennis Courts,Cowen Park,5849 15th Ave. NE,http://www.seattle.gov/parks/park_detail.asp?ID=483,-122.313072,47.672596,"(47.672596, -122.313072)"
Tennis Courts,South Park Playground,738 S Sullivan St.,http://www.seattle.gov/parks/park_detail.asp?ID=467,-122.32416,47.528017,"(47.528017, -122.32416)"
Tennis Courts,Riverview Playfield,7226 12th Ave. SW,http://www.seattle.gov/parks/park_detail.asp?ID=463,-122.348855,47.539328,"(47.539328, -122.348855)"
Tennis Courts,Highland Park Playground,1100 SW Cloverdale St.,http://www.seattle.gov/parks/park_detail.asp?ID=457,-122.349032,47.527379,"(47.527379, -122.349032)"
Tennis Courts,Hiawatha Playfield,2700 California Ave. SW,http://www.seattle.gov/parks/park_detail.asp?ID=456,-122.384965,47.578273,"(47.578273, -122.384965)"
Tennis Courts,Bryant Playground,4103 NE 65th St.,http://www.seattle.gov/parks/park_detail.asp?ID=482,-122.283644,47.675299,"(47.675299, -122.283644)"
Tennis Courts,Lowman Beach Park,7017 Beach Dr. SW,http://www.seattle.gov/parks/park_detail.asp?ID=461,-122.397762,47.540163,"(47.540163, -122.397762)"
Tennis Courts,Green Lake Park,7201 E Green Lake Dr. N,http://www.seattle.gov/parks/park_detail.asp?ID=307,-122.331029,47.681711,"(47.681711, -122.331029)"
Tennis Courts,Froula Playground,7200 12th Ave. NE,http://www.seattle.gov/parks/park_detail.asp?ID=287,-122.313977,47.680538,"(47.680538, -122.313977)"
Tennis Courts,Jefferson Park,4165 16th Ave. S,http://www.seattle.gov/parks/park_detail.asp?ID=114,-122.310923,47.56896,"(47.56896, -122.310923)"
Tennis Courts,Ballard Playground,2644 NW 60th St.,http://www.seattle.gov/parks/park_detail.asp?ID=497,-122.39155,47.672786,"(47.672786, -122.39155)"
Viewpoints,Seola Park,11399 Seola Beach Dr. Sw,http://www.seattle.gov/parks/park_detail.asp?ID=466,-122.374332,47.50039,"(47.50039, -122.374332)"
Viewpoints,Howell Park,1740 E Howell Pl.,http://www.seattle.gov/parks/park_detail.asp?ID=359,-122.280313,47.617518,"(47.617518, -122.280313)"
Viewpoints,Leschi Park,100 Lakeside Ave. S,http://www.seattle.gov/parks/park_detail.asp?ID=367,-122.286548,47.600931,"(47.600931, -122.286548)"
Viewpoints,Mccurdy Park,E Hamlin St. And E Park Dr. E,http://www.seattle.gov/parks/park_detail.asp?ID=372,-122.300956,47.64495,"(47.64495, -122.300956)"
Viewpoints,Washington Park Arboretum,2300 Arboretum Dr. E,http://www.seattle.gov/parks/park_detail.asp?ID=393,-122.294835,47.636477,"(47.636477, -122.294835)"
Viewpoints,Mt. Baker Park,2521 Lake Park Dr. S,http://www.seattle.gov/parks/park_detail.asp?ID=419,-122.288481,47.580957,"(47.580957, -122.288481)"
Viewpoints,Martha Washington Park,6612 57th Ave. S,http://www.seattle.gov/parks/park_detail.asp?ID=432,-122.260054,47.542398,"(47.542398, -122.260054)"
Viewpoints,Beer Sheva Park,8650 55th Ave. S,http://www.seattle.gov/parks/park_detail.asp?ID=440,-122.263223,47.524191,"(47.524191, -122.263223)"
Viewpoints,Hamilton Viewpoint Park,1531 California Way Sw,http://www.seattle.gov/parks/park_detail.asp?ID=454,-122.389068,47.590747,"(47.590747, -122.389068)"
Viewpoints,Sturgus Park,904 Sturgus Ave. S,http://www.seattle.gov/parks/park_detail.asp?ID=592,-122.314376,47.59409,"(47.59409, -122.314376)"
Viewpoints,North Passage Point Park,600 Ne Northlake Way,http://www.seattle.gov/parks/park_detail.asp?ID=2956,-122.322428,47.653963,"(47.653963, -122.322428)"
Viewpoints,Terry Pettus Park,E Newton St. And Fairview Ave. E,http://www.seattle.gov/parks/park_detail.asp?ID=3889,-122.329689,47.636742,"(47.636742, -122.329689)"
Viewpoints,"Martin Luther King, Jr. Memorial",2200 Martin Luther King Jr. Way,http://www.seattle.gov/parks/park_detail.asp?ID=3923,-122.297165,47.582756,"(47.582756, -122.297165)"
Viewpoints,Bagley Viewpoint,2548 Delmar Dr. E,http://www.seattle.gov/parks/park_detail.asp?ID=4006,-122.318348,47.643015,"(47.643015, -122.318348)"
Viewpoints,Eastmont Place,Eastmont Way W And Westmont Way W,http://www.seattle.gov/parks/park_detail.asp?ID=4012,-122.405566,47.637689,"(47.637689, -122.405566)"
Viewpoints,Columbia Park,4721 Rainier Ave. S,http://www.seattle.gov/parks/park_detail.asp?ID=4034,-122.287394,47.559792,"(47.559792, -122.287394)"
Viewpoints,12th Ave. S Viewpoint,12th Ave. S And S Forest St.,http://www.seattle.gov/parks/park_detail.asp?ID=4159,-122.317765,47.577953,"(47.577953, -122.317765)"
Viewpoints,Sam Smith Park,1400 Martin Luther King Jr Way S,http://www.seattle.gov/parks/park_detail.asp?ID=4242,-122.297814,47.589982,"(47.589982, -122.297814)"
Viewpoints,A. B. Ernst Park,723 N 35th St.,http://www.seattle.gov/parks/park_detail.asp?ID=4404,-122.348826,47.650087,"(47.650087, -122.348826)"
Viewpoints,Maclean Park,1920 Taylor Ave. N,http://www.seattle.gov/parks/park_detail.asp?ID=4422,-122.345276,47.636191,"(47.636191, -122.345276)"
Viewpoints,Mt. Baker Ridge Viewpoint,1403 31st Ave S,http://www.seattle.gov/parks/park_detail.asp?ID=4427,-122.292618,47.589982,"(47.589982, -122.292618)"
Viewpoints,Madison Park North Beach,2300 23rd Ave. Ne,http://www.seattle.gov/parks/park_detail.asp?ID=4441,-122.276118,47.639084,"(47.639084, -122.276118)"
Viewpoints,Northwest 60th St. Viewpoint,6001 Seaview Ave. Nw,http://www.seattle.gov/parks/park_detail.asp?ID=4161,-122.40656,47.672184,"(47.672184, -122.40656)"
Viewpoints,East Portal Viewpoint,1400 Lake Washington Blvd. S,http://www.seattle.gov/parks/park_detail.asp?ID=4241,-122.287892,47.590222,"(47.590222, -122.287892)"
Viewpoints,Judge Charles M Stokes Overlook,S Judkins St And 20th Ave S,http://www.seattle.gov/parks/park_detail.asp?ID=4244,-122.306962,47.591632,"(47.591632, -122.306962)"
Viewpoints,Benvenuto Viewpoint,1401 23rd Ave. S,http://www.seattle.gov/parks/park_detail.asp?ID=4245,-122.303028,47.589841,"(47.589841, -122.303028)"
Viewpoints,Taejon Park,1144 Sturgus Ave. S,http://www.seattle.gov/parks/park_detail.asp?ID=4400,-122.312163,47.59192,"(47.59192, -122.312163)"
Viewpoints,Herrings House Park (Tulaltx),4540 West Marginal Way,http://www.seattle.gov/parks/park_detail.asp?ID=4412,-122.349547,47.561514,"(47.561514, -122.349547)"
Viewpoints,Trolley Hill Park,5th Ave. N And Blaine St.,http://www.seattle.gov/parks/park_detail.asp?ID=4421,-122.347038,47.635142,"(47.635142, -122.347038)"
Viewpoints,Fremont Peak Park,4351 Palatine Ave. N,http://www.seattle.gov/parks/park_detail.asp?ID=4424,-122.356671,47.661108,"(47.661108, -122.356671)"
Viewpoints,Homer Harris Park,2401 E Howell St.,http://www.seattle.gov/parks/park_detail.asp?ID=4426,-122.300993,47.617309,"(47.617309, -122.300993)"
Viewpoints,Kiwanis Ravine Overlook,34th Ave. W And W Mccord Pl,http://www.seattle.gov/parks/park_detail.asp?ID=4429,-122.403237,47.66025,"(47.66025, -122.403237)"
Viewpoints,Smith Cove,23rd Ave W And West Marina Pl,http://www.seattle.gov/parks/park_detail.asp?ID=4433,-122.387679,47.632602,"(47.632602, -122.387679)"
Viewpoints,Lake People Park (Xacuabs),3070 S. Bradford St,http://www.seattle.gov/parks/park_detail.asp?ID=4439,-122.292014,47.569134,"(47.569134, -122.292014)"
Viewpoints,I-5 Colonnade,Beneath I-5 South Of E. Howe St. Between Lakeview Blvd. And Franklin Ave. E.,http://www.seattle.gov/parks/park_detail.asp?ID=4446,-122.32341,47.634897,"(47.634897, -122.32341)"
Viewpoints,Ursula Judkins Viewpoint, West Galer St - West of Magnolia Bridge,http://www.seattle.gov/parks/park_detail.asp?ID=4451,-122.390234,47.632049,"(47.632049, -122.390234)"
Viewpoints,Northlake Park,699 Ne Northlake Way,http://www.seattle.gov/parks/park_detail.asp?ID=4452,-122.320825,47.654365,"(47.654365, -122.320825)"
Viewpoints,Rotary Viewpoint,35th Ave Sw & Sw Alaska St,http://www.seattle.gov/parks/park_detail.asp?ID=4465,-122.375861,47.560223,"(47.560223, -122.375861)"
Viewpoints,Roanoke St. Mini Park,E Roanoke St. And Fairview Ave. E,http://www.seattle.gov/parks/park_detail.asp?ID=9064,-122.329327,47.643193,"(47.643193, -122.329327)"
Viewpoints,Weather Watch Park,4035 Beach Dr. SW,http://www.seattle.gov/parks/park_detail.asp?ID=3966,-122.409648,47.567576,"(47.567576, -122.409648)"
Viewpoints,Peace Park,NE Pacific St. and NE 40th St,http://www.seattle.gov/parks/park_detail.asp?ID=4029,-122.323616,47.65543,"(47.65543, -122.323616)"
Viewpoints,South Passage Point Park,3320 Fuhrman Ave. E,http://www.seattle.gov/parks/park_detail.asp?ID=377,-122.32249,47.652203,"(47.652203, -122.32249)"
Viewpoints,Warren G. Magnuson Park,7400 Sand Point Way Ne,http://www.seattle.gov/parks/park_detail.asp?ID=398,-122.255084,47.680304,"(47.680304, -122.255084)"
Viewpoints,Bradner Gardens Park,29th Ave. S. And South Grand St.,http://www.seattle.gov/parks/park_detail.asp?ID=401,-122.295424,47.587418,"(47.587418, -122.295424)"
Viewpoints,Pritchard Island Beach,8400 55th Ave. S,http://www.seattle.gov/parks/park_detail.asp?ID=420,-122.26283,47.528948,"(47.528948, -122.26283)"
Viewpoints,Chinook Beach Park,Rainier Ave. S And S Ithaca St.,http://www.seattle.gov/parks/park_detail.asp?ID=421,-122.258375,47.520136,"(47.520136, -122.258375)"
Viewpoints,Seward Park,5902 Lake Washington Blvd. S,http://www.seattle.gov/parks/park_detail.asp?ID=428,-122.25245,47.5543,"(47.5543, -122.25245)"
Viewpoints,Dr. Jose Rizal Park,1008 12th Ave. S,http://www.seattle.gov/parks/park_detail.asp?ID=433,-122.318452,47.592681,"(47.592681, -122.318452)"
Viewpoints,Benefit Playground,9320 38th Ave. S,http://www.seattle.gov/parks/park_detail.asp?ID=436,-122.284294,47.518998,"(47.518998, -122.284294)"
Viewpoints,Alki Beach Park,1702 Alki Ave. Sw,http://www.seattle.gov/parks/park_detail.asp?ID=445,-122.400127,47.586709,"(47.586709, -122.400127)"
Viewpoints,Belvedere Park,3600 Admiral Way Sw,http://www.seattle.gov/parks/park_detail.asp?ID=447,-122.376896,47.580673,"(47.580673, -122.376896)"
Viewpoints,Seacrest Park,1660 Harbor Ave Sw,http://www.seattle.gov/parks/park_detail.asp?ID=455,-122.378678,47.588951,"(47.588951, -122.378678)"
Viewpoints,Lincoln Park,8011 Fauntleroy Way Sw,http://www.seattle.gov/parks/park_detail.asp?ID=460,-122.396012,47.531176,"(47.531176, -122.396012)"
Viewpoints,Lowman Beach Park,7017 Beach Dr. Sw,http://www.seattle.gov/parks/park_detail.asp?ID=461,-122.397762,47.540163,"(47.540163, -122.397762)"
Viewpoints,Belvoir Place,3659  42nd Ave. Ne,http://www.seattle.gov/parks/park_detail.asp?ID=475,-122.283216,47.655123,"(47.655123, -122.283216)"
Viewpoints,Burke-Gilman Trail,3rd Ave. Nw To Ne 145th St,http://www.seattle.gov/parks/park_detail.asp?ID=476,-122.284567,47.681597,"(47.681597, -122.284567)"
Viewpoints,Duwamish Waterway Park,7900 10th Ave. S,http://www.seattle.gov/parks/park_detail.asp?ID=705,-122.319695,47.531156,"(47.531156, -122.319695)"
Viewpoints,Ward Springs Park,925 4th Ave. N,http://www.seattle.gov/parks/park_detail.asp?ID=763,-122.349245,47.627747,"(47.627747, -122.349245)"
Viewpoints,Andover Place,4000 Beach Dr. Sw,http://www.seattle.gov/parks/park_detail.asp?ID=2927,-122.409994,47.568517,"(47.568517, -122.409994)"
Viewpoints,Fairview Park,2900 Fairview Ave. E,http://www.seattle.gov/parks/park_detail.asp?ID=2975,-122.324917,47.647741,"(47.647741, -122.324917)"
Viewpoints,West Ewing Mini Park,W Ewing St. And 3rd Ave. W,http://www.seattle.gov/parks/park_detail.asp?ID=3694,-122.360603,47.652049,"(47.652049, -122.360603)"
Viewpoints,Sunnyside Ave N Boat Ramp,2301 Ne Northlake Way,http://www.seattle.gov/parks/park_detail.asp?ID=3903,-122.330536,47.649983,"(47.649983, -122.330536)"
Viewpoints,Don Armeni Park,1222 Harbor Ave. Sw,http://www.seattle.gov/parks/park_detail.asp?ID=3917,-122.38244,47.59291,"(47.59291, -122.38244)"
Viewpoints,Emma Schmitz Memorial Overlook,4503 Beach Dr. Sw,http://www.seattle.gov/parks/park_detail.asp?ID=3920,-122.407119,47.562898,"(47.562898, -122.407119)"
Viewpoints,Waterfront Park,1301 Alaskan Way,http://www.seattle.gov/parks/park_detail.asp?ID=3973,-122.342196,47.606778,"(47.606778, -122.342196)"
Viewpoints,Denny Blaine Park,200 Lake Washington Blvd. E,http://www.seattle.gov/parks/park_detail.asp?ID=3982,-122.280548,47.62011,"(47.62011, -122.280548)"
Viewpoints,Plymouth Pillars Park,Boren Ave. And Pike St.,http://www.seattle.gov/parks/park_detail.asp?ID=4000,-122.329091,47.614124,"(47.614124, -122.329091)"
Viewpoints,Fremont Canal Park,199 N Canal St.,http://www.seattle.gov/parks/park_detail.asp?ID=4011,-122.357863,47.651801,"(47.651801, -122.357863)"
Viewpoints,Mcgilvra Boulevard,,http://www.seattle.gov/parks/park_detail.asp?ID=4013,-122.282116,47.626925,"(47.626925, -122.282116)"
Viewpoints,Mt. Claire Park,2534 Mount Claire Dr. S,http://www.seattle.gov/parks/park_detail.asp?ID=4019,-122.28642,47.580737,"(47.580737, -122.28642)"
Viewpoints,Rainbow Point,625 Ne Banner Way,http://www.seattle.gov/parks/park_detail.asp?ID=4045,-122.320475,47.682712,"(47.682712, -122.320475)"
Viewpoints,Lynn Street Mini Park,E Lynn St. And Fairview Ave. E,http://www.seattle.gov/parks/park_detail.asp?ID=4075,-122.329749,47.639849,"(47.639849, -122.329749)"
Viewpoints,Day Street Boat Ramp,1400 Lakeside Ave. S,http://www.seattle.gov/parks/park_detail.asp?ID=4082,-122.285725,47.590364,"(47.590364, -122.285725)"
Viewpoints,Horiuchi Park,156 Boren Ave,http://www.seattle.gov/parks/park_detail.asp?ID=43,-122.318982,47.603132,"(47.603132, -122.318982)"
Viewpoints,Charles Richey Sr Viewpoint,63rd Ave. Sw And Beach Dr. Sw,http://www.seattle.gov/parks/park_detail.asp?ID=80,-122.417387,47.573458,"(47.573458, -122.417387)"
Viewpoints,Jefferson Park,4165 16th Ave. S,http://www.seattle.gov/parks/park_detail.asp?ID=114,-122.310923,47.56896,"(47.56896, -122.310923)"
Viewpoints,Carkeek Park,950 Nw Carkeek Park Rd.,http://www.seattle.gov/parks/park_detail.asp?ID=240,-122.372409,47.710822,"(47.710822, -122.372409)"
Viewpoints,Golden Gardens Park,8498 Seaview Pl Nw,http://www.seattle.gov/parks/park_detail.asp?ID=243,-122.40327,47.692105,"(47.692105, -122.40327)"
Viewpoints,Soundview Playfield,1590 Nw 90th St.,http://www.seattle.gov/parks/park_detail.asp?ID=251,-122.378878,47.695417,"(47.695417, -122.378878)"
Viewpoints,Sunset Hill Park,7531 34th Ave. Nw,http://www.seattle.gov/parks/park_detail.asp?ID=252,-122.40094,47.684033,"(47.684033, -122.40094)"
Viewpoints,Piers 62 And 63,1951 Alaskan Way,http://www.seattle.gov/parks/park_detail.asp?ID=274,-122.345237,47.608656,"(47.608656, -122.345237)"
Viewpoints,Gas Works Park,2101 N Northlake Way,http://www.seattle.gov/parks/park_detail.asp?ID=293,-122.334906,47.645639,"(47.645639, -122.334906)"
Viewpoints,Cormorant Cove,3701 Beach Dr. Sw,http://www.seattle.gov/parks/park_detail.asp?ID=295,-122.412091,47.570983,"(47.570983, -122.412091)"
Viewpoints,Bayview Playground,2614 24th Ave. W,http://www.seattle.gov/parks/park_detail.asp?ID=303,-122.386787,47.643801,"(47.643801, -122.386787)"
Viewpoints,Bhy Kracke Park,1215 5th Ave. N,http://www.seattle.gov/parks/park_detail.asp?ID=304,-122.348403,47.630426,"(47.630426, -122.348403)"
Viewpoints,Commodore Park,3330 W Commodore Way,http://www.seattle.gov/parks/park_detail.asp?ID=308,-122.400141,47.665379,"(47.665379, -122.400141)"
Viewpoints,Discovery Park,3801 W Government Way,http://www.seattle.gov/parks/park_detail.asp?ID=310,-122.415282,47.66083,"(47.66083, -122.415282)"
Viewpoints,Myrtle Edwards Park,3130 Alaskan Way W,http://www.seattle.gov/parks/park_detail.asp?ID=311,-122.360872,47.618766,"(47.618766, -122.360872)"
Viewpoints,Kinnear Park,2501 15th Ave. W,http://www.seattle.gov/parks/park_detail.asp?ID=314,-122.367207,47.627317,"(47.627317, -122.367207)"
Viewpoints,Magnolia Park,1461 Magnolia Blvd W,http://www.seattle.gov/parks/park_detail.asp?ID=317,-122.397349,47.633426,"(47.633426, -122.397349)"
Viewpoints,Ella Bailey Park,2601 W Smith St,http://www.seattle.gov/parks/park_detail.asp?ID=318,-122.391058,47.640585,"(47.640585, -122.391058)"
Viewpoints,Marshall Park,7th Ave. W And W Highland Dr.,http://www.seattle.gov/parks/park_detail.asp?ID=320,-122.366807,47.629437,"(47.629437, -122.366807)"
Viewpoints,Kerry Park,211 W Highland Dr.,http://www.seattle.gov/parks/park_detail.asp?ID=342,-122.359874,47.629023,"(47.629023, -122.359874)"
Viewpoints,Lake Union Park,860 Terry Ave N,http://www.seattle.gov/parks/park_detail.asp?ID=344,-122.337477,47.627143,"(47.627143, -122.337477)"
Viewpoints,Matthews Beach Park,9300 51st Ave. Ne,http://www.seattle.gov/parks/park_detail.asp?ID=347,-122.272703,47.695923,"(47.695923, -122.272703)"
Viewpoints,Lakeview Park,340 37th Ave. E,http://www.seattle.gov/parks/park_detail.asp?ID=365,-122.284732,47.62205,"(47.62205, -122.284732)"
Viewpoints,Madison Park,E. Madison St. And E. Howe St.,http://www.seattle.gov/parks/park_detail.asp?ID=369,-122.276602,47.635779,"(47.635779, -122.276602)"
Viewpoints,Madrona Park,853 Lake Washington Blvd.,http://www.seattle.gov/parks/park_detail.asp?ID=370,-122.282679,47.609299,"(47.609299, -122.282679)"
Viewpoints,West Montlake Park,2815 W Park Dr. E,http://www.seattle.gov/parks/park_detail.asp?ID=375,-122.309821,47.646219,"(47.646219, -122.309821)"
Viewpoints,Montlake Playfield,1618 E Calhoun St,http://www.seattle.gov/parks/park_detail.asp?ID=376,-122.310083,47.642407,"(47.642407, -122.310083)"
Viewpoints,Victor Steinbrueck Park,2001 Western Ave.,http://www.seattle.gov/parks/park_detail.asp?ID=338,-122.343869,47.610153,"(47.610153, -122.343869)"
Wading Pools,South Park Playground,738 S Sullivan St.,http://www.seattle.gov/parks/wadingpools_detail.asp?ID=467,-122.32416,47.528017,"(47.528017, -122.32416)"
Wading Pools,Van Asselt Playground,7200 Beacon Ave. S,http://www.seattle.gov/parks/wadingpools_detail.asp?ID=431,-122.294066,47.539447,"(47.539447, -122.294066)"
Wading Pools,Volunteer Park,1247 15th Ave. E,http://www.seattle.gov/parks/wadingpools_detail.asp?ID=399,-122.315568,47.630378,"(47.630378, -122.315568)"
Wading Pools,Wallingford Playfield,4219 Wallingford Ave. N,http://www.seattle.gov/parks/wadingpools_detail.asp?ID=449,-122.337434,47.658554,"(47.658554, -122.337434)"
Wading Pools,Gilman Playground,923 NW 54th St.,http://www.seattle.gov/parks/wadingpools_detail.asp?ID=242,-122.369684,47.667293,"(47.667293, -122.369684)"
Wading Pools,Green Lake Park,7201 E Green Lake Dr. N,http://www.seattle.gov/parks/wadingpools_detail.asp?ID=307,-122.331029,47.681711,"(47.681711, -122.331029)"
Wading Pools,Hiawatha Playfield,2700 California Ave. SW,http://www.seattle.gov/parks/wadingpools_detail.asp?ID=456,-122.384965,47.578273,"(47.578273, -122.384965)"
Wading Pools,Judkins Park And Playfield,2150 S Norman St.,http://www.seattle.gov/parks/wadingpools_detail.asp?ID=397,-122.303951,47.592425,"(47.592425, -122.303951)"
Wading Pools,Lincoln Park,8011 Fauntleroy Way SW,http://www.seattle.gov/parks/wadingpools_detail.asp?ID=460,-122.396012,47.531176,"(47.531176, -122.396012)"
Wading Pools,Northacres Park,12718 1st Ave. NE,http://www.seattle.gov/parks/wadingpools_detail.asp?ID=361,-122.326992,47.721559,"(47.721559, -122.326992)"
Wading Pools,Peppis Playground,3233 E Spruce St.,http://www.seattle.gov/parks/wadingpools_detail.asp?ID=378,-122.290601,47.602723,"(47.602723, -122.290601)"
Wading Pools,Powell Barnett Park,352 Martin Luther King Jr. Way,http://www.seattle.gov/parks/wadingpools_detail.asp?ID=345,-122.295998,47.605197,"(47.605197, -122.295998)"
Wading Pools,Ravenna Park,5520 Ravenna Ave. NE,http://www.seattle.gov/parks/wadingpools_detail.asp?ID=391,-122.305705,47.671404,"(47.671404, -122.305705)"
Wading Pools,Georgetown Playfield,750 S Homer St.,http://www.seattle.gov/parks/wadingpools_detail.asp?ID=410,-122.321395,47.551619,"(47.551619, -122.321395)"
Wading Pools,Highland Park Playground,1100 SW Cloverdale St.,http://www.seattle.gov/parks/wadingpools_detail.asp?ID=457,-122.349032,47.527379,"(47.527379, -122.349032)"
Wading Pools,Ballard Commons Park,5701 22nd Ave. NW,http://www.seattle.gov/parks/wadingpools_detail.asp?ID=4278,-122.385486,47.670549,"(47.670549, -122.385486)"
Wading Pools,Pendleton Miller Playfield,400 19th Ave. E,http://www.seattle.gov/parks/wadingpools_detail.asp?ID=373,-122.306261,47.621432,"(47.621432, -122.306261)"
Wading Pools,Pratt Park,1800 S Main St.,http://www.seattle.gov/parks/wadingpools_detail.asp?ID=390,-122.307464,47.600704,"(47.600704, -122.307464)"
Wading Pools,Soundview Playfield,1590 NW 90th St.,http://www.seattle.gov/parks/wadingpools_detail.asp?ID=251,-122.378878,47.695417,"(47.695417, -122.378878)"
Wading Pools,View Ridge Playfield,4408 NE 70th St.,http://www.seattle.gov/parks/wadingpools_detail.asp?ID=444,-122.281073,47.680361,"(47.680361, -122.281073)"
Wading Pools,Beacon Hill Playground,1902 13th Ave. S,http://www.seattle.gov/parks/wadingpools_detail.asp?ID=400,-122.315325,47.586228,"(47.586228, -122.315325)"
Wading Pools,Bitter Lake Playfield,13035 Linden Ave. N,http://www.seattle.gov/parks/wadingpools_detail.asp?ID=288,-122.349314,47.724209,"(47.724209, -122.349314)"
Wading Pools,Delridge Playfield,4458 Delridge Way SW,http://www.seattle.gov/parks/wadingpools_detail.asp?ID=450,-122.364369,47.562841,"(47.562841, -122.364369)"
Wading Pools,E.C. Hughes Playground,2805 SW Holden St.,http://www.seattle.gov/parks/wadingpools_detail.asp?ID=458,-122.369544,47.532805,"(47.532805, -122.369544)"
Wading Pools,East Queen Anne Playground,1912 Warren Ave. N,http://www.seattle.gov/parks/wadingpools_detail.asp?ID=329,-122.353788,47.636139,"(47.636139, -122.353788)"
Wading Pools,Warren G. Magnuson Park,6550 Sand Point Way NE,http://www.seattle.gov/parks/wadingpools_detail.asp?ID=398,-122.255084,47.680304,"(47.680304, -122.255084)"
Wading Pools,Sandel Playground,9053 1st Ave. NW,http://www.seattle.gov/parks/wadingpools_detail.asp?ID=250,-122.358699,47.695135,"(47.695135, -122.358699)"
Wading Pools,Dahl (Waldo J.) Playfield,7700 25th Ave. NE,http://www.seattle.gov/parks/wadingpools_detail.asp?ID=499,-122.299309,47.685267,"(47.685267, -122.299309)"
Waterfront,East Montlake Park,,http://www.seattle.gov/parks/park_detail.asp?ID=374,-122.301441,47.646662,"(47.646662, -122.301441)"
Waterfront,West Montlake Park,,http://www.seattle.gov/parks/park_detail.asp?ID=375,-122.310697,47.646509,"(47.646509, -122.310697)"
Waterfront,Montlake Playfield,,http://www.seattle.gov/parks/park_detail.asp?ID=376,-122.3122,47.642289,"(47.642289, -122.3122)"
Waterfront,South Passage Point Park,,http://www.seattle.gov/parks/park_detail.asp?ID=377,-122.322254,47.652352,"(47.652352, -122.322254)"
Waterfront,Leschi Park,100 LAKESIDE AV S,http://www.seattle.gov/parks/park_detail.asp?ID=392,-122.290256,47.599506,"(47.599506, -122.290256)"
Waterfront,Foster Island (Wash. Park),,http://www.seattle.gov/parks/park_detail.asp?ID=393,-122.289473,47.645995,"(47.645995, -122.289473)"
Waterfront,Golden Gardens Park,,http://www.seattle.gov/parks/park_detail.asp?ID=243,-122.405277,47.693083,"(47.693083, -122.405277)"
Waterfront,Green Lake Park,,http://www.seattle.gov/parks/park_detail.asp?ID=307,-122.329126,47.680074,"(47.680074, -122.329126)"
Waterfront,Me-Kwa-Mooks Park,,http://www.seattle.gov/parks/park_detail.asp?ID=473,-122.406258,47.563455,"(47.563455, -122.406258)"
Waterfront,Andover Place,,http://www.seattle.gov/parks/park_detail.asp?ID=2927,-122.409774,47.568512,"(47.568512, -122.409774)"
Waterfront,Open Water Park,ELLIOTT BAY MARINA TO PIER 91,http://www.seattle.gov/parks/park_detail.asp?ID=3005,-122.386069,47.631596,"(47.631596, -122.386069)"
Waterfront,Don Armeni Park,,http://www.seattle.gov/parks/park_detail.asp?ID=3917,-122.382736,47.593656,"(47.593656, -122.382736)"
Waterfront,Denny Blaine Park,,http://www.seattle.gov/parks/park_detail.asp?ID=3982,-122.280166,47.619939,"(47.619939, -122.280166)"
Waterfront,Smith Cove Park,23RD AVE W at W MARINA PL,http://www.seattle.gov/parks/park_detail.asp?ID=4433,-122.387589,47.631718,"(47.631718, -122.387589)"
Waterfront,Discovery Park,,http://www.seattle.gov/parks/park_detail.asp?ID=16548,-122.434761,47.661819,"(47.661819, -122.434761)"
Waterfront,Warren G. Magnuson Park,6550 Sand Point Wy NE,http://www.seattle.gov/parks/park_detail.asp?ID=398,-122.246913,47.681047,"(47.681047, -122.246913)"
Waterfront,Colman Park,,http://www.seattle.gov/parks/park_detail.asp?ID=405,-122.286292,47.586017,"(47.586017, -122.286292)"
Waterfront,Lake Washington Boulevard,,http://www.seattle.gov/parks/park_detail.asp?ID=412,-122.28347,47.606365,"(47.606365, -122.28347)"
Waterfront,Lake Washington Boulevard,,http://www.seattle.gov/parks/park_detail.asp?ID=413,-122.264912,47.561358,"(47.561358, -122.264912)"
Waterfront,Mount Baker Park,,http://www.seattle.gov/parks/park_detail.asp?ID=419,-122.28765,47.584297,"(47.584297, -122.28765)"
Waterfront,Pritchard Island Beach,,http://www.seattle.gov/parks/park_detail.asp?ID=420,-122.263215,47.529504,"(47.529504, -122.263215)"
Waterfront,Chinook Beach Park,RAINIER AVE S / S ITHACA ST,http://www.seattle.gov/parks/park_detail.asp?ID=421,-122.259288,47.520349,"(47.520349, -122.259288)"
Waterfront,Stanley Sayres Memorial Park,3800 LAKE WASHINGTON BLVD,http://www.seattle.gov/parks/park_detail.asp?ID=425,-122.276515,47.570482,"(47.570482, -122.276515)"
Waterfront,Seward Park,,http://www.seattle.gov/parks/park_detail.asp?ID=428,-122.248351,47.557472,"(47.557472, -122.248351)"
Waterfront,Martha Washington Park,,http://www.seattle.gov/parks/park_detail.asp?ID=432,-122.260023,47.541861,"(47.541861, -122.260023)"
Waterfront,Beer Sheva Park,,http://www.seattle.gov/parks/park_detail.asp?ID=440,-122.262723,47.52381,"(47.52381, -122.262723)"
Waterfront,Alki Beach Park,,http://www.seattle.gov/parks/park_detail.asp?ID=445,-122.396921,47.587223,"(47.587223, -122.396921)"
Waterfront,Seacrest Park,,http://www.seattle.gov/parks/park_detail.asp?ID=455,-122.378515,47.58844,"(47.58844, -122.378515)"
Waterfront,Lincoln Park,,http://www.seattle.gov/parks/park_detail.asp?ID=460,-122.401197,47.530305,"(47.530305, -122.401197)"
Waterfront,Lowman Beach Park,,http://www.seattle.gov/parks/park_detail.asp?ID=461,-122.397242,47.54045,"(47.54045, -122.397242)"
Waterfront,Belvoir Place,3659  42ND AV NE,http://www.seattle.gov/parks/park_detail.asp?ID=475,-122.283498,47.654931,"(47.654931, -122.283498)"
Waterfront,Duwamish Waterway Park,,http://www.seattle.gov/parks/park_detail.asp?ID=705,-122.319672,47.531368,"(47.531368, -122.319672)"
Waterfront,North Passage Point Park,,http://www.seattle.gov/parks/park_detail.asp?ID=2956,-122.322732,47.653756,"(47.653756, -122.322732)"
Waterfront,Fairview Park,,http://www.seattle.gov/parks/park_detail.asp?ID=2975,-122.324917,47.647741,"(47.647741, -122.324917)"
Waterfront,West Ewing Mini Park,,http://www.seattle.gov/parks/park_detail.asp?ID=3694,-122.360602,47.65205,"(47.65205, -122.360602)"
Waterfront,Terry Pettus Park,,http://www.seattle.gov/parks/park_detail.asp?ID=3889,-122.329689,47.636741,"(47.636741, -122.329689)"
Waterfront,Emma Schmitz Memorial Overlook,,http://www.seattle.gov/parks/park_detail.asp?ID=3920,-122.407006,47.564199,"(47.564199, -122.407006)"
Waterfront,Waterfront Park,,http://www.seattle.gov/parks/park_detail.asp?ID=3973,-122.343523,47.60755,"(47.60755, -122.343523)"
Waterfront,Fremont Canal Park,,http://www.seattle.gov/parks/park_detail.asp?ID=4011,-122.357864,47.651802,"(47.651802, -122.357864)"
Waterfront,South Day Street Park,1400 LAKESIDE AVE S,http://www.seattle.gov/parks/park_detail.asp?ID=4082,-122.285154,47.59026,"(47.59026, -122.285154)"
Waterfront,Madison Park North Beach,,http://www.seattle.gov/parks/park_detail.asp?ID=4441,-122.275416,47.639196,"(47.639196, -122.275416)"
Waterfront,Northlake Park,,http://www.seattle.gov/parks/park_detail.asp?ID=4452,-122.320826,47.654365,"(47.654365, -122.320826)"
Waterfront,Weather Watch Park,4035 Beach Dr. SW,http://www.seattle.gov/parks/park_detail.asp?ID=3966,-122.409506,47.568247,"(47.568247, -122.409506)"
Waterfront,Charles Richey Sr Viewpoint,,http://www.seattle.gov/parks/park_detail.asp?ID=80,-122.414034,47.572454,"(47.572454, -122.414034)"
Waterfront,Carkeek Park,,http://www.seattle.gov/parks/park_detail.asp?ID=240,-122.379627,47.712382,"(47.712382, -122.379627)"
Waterfront,Bitter Lake Playfield,,http://www.seattle.gov/parks/park_detail.asp?ID=288,-122.349554,47.724763,"(47.724763, -122.349554)"
Waterfront,Cormorant Cove,,http://www.seattle.gov/parks/park_detail.asp?ID=295,-122.411181,47.570955,"(47.570955, -122.411181)"
Waterfront,Myrtle Edwards Park,,http://www.seattle.gov/parks/park_detail.asp?ID=311,-122.361815,47.619198,"(47.619198, -122.361815)"
Waterfront,Magnolia Park,,http://www.seattle.gov/parks/park_detail.asp?ID=317,-122.396293,47.631796,"(47.631796, -122.396293)"
Waterfront,Thorndyke Park,,http://www.seattle.gov/parks/park_detail.asp?ID=343,-122.390185,47.631825,"(47.631825, -122.390185)"
Waterfront,Lake Union Park,,http://www.seattle.gov/parks/park_detail.asp?ID=344,-122.337669,47.627908,"(47.627908, -122.337669)"
Waterfront,Matthews Beach Park,,http://www.seattle.gov/parks/park_detail.asp?ID=347,-122.272868,47.696938,"(47.696938, -122.272868)"
Waterfront,Howell Park,,http://www.seattle.gov/parks/park_detail.asp?ID=359,-122.279807,47.617517,"(47.617517, -122.279807)"
Waterfront,Leschi Park,100 LAKESIDE AV S,http://www.seattle.gov/parks/park_detail.asp?ID=367,-122.284675,47.601011,"(47.601011, -122.284675)"
Waterfront,Madison Park,,http://www.seattle.gov/parks/park_detail.asp?ID=369,-122.275765,47.635981,"(47.635981, -122.275765)"
Waterfront,Madrona Park,,http://www.seattle.gov/parks/park_detail.asp?ID=370,-122.281711,47.611041,"(47.611041, -122.281711)"
Waterfront,Mccurdy (Horace) Park,E HAMLIN ST / E PARK DR E,http://www.seattle.gov/parks/park_detail.asp?ID=372,-122.300955,47.644951,"(47.644951, -122.300955)"
